{
 "type": "FeatureCollection",
 "features": [
  {
   "type": "Feature",
   "properties": {
    "name_zh": "三聖",
    "name_en": "Sam Shing",
    "source": "generated: rail stops, buffered 50m"
   },
   "geometry": {
    "type": "Polygon",
    "coordinates": [
     [
      [113.977346, 22.3829],
      [113.977204, 22.382582],
      [113.97686, 22.382451],
      [113.976516, 22.382582],
      [113.976374, 22.3829],
      [113.976516, 22.383218],
      [113.97686, 22.383349],
      [113.977204, 22.383218],
      [113.977346, 22.3829]
     ]
    ]
   }
  },
  {
   "type": "Feature",
   "properties": {
    "name_zh": "上水",
    "name_en": "Sheung Shui",
    "source": "generated: mtr exits + rail stops, buffered 50m"
   },
   "geometry": {
    "type": "Polygon",
    "coordinates": [
     [
      [114.128625, 22.50048],
      [114.128306, 22.50034],
      [114.127969, 22.500437],
      [114.127087, 22.501104],
      [114.126903, 22.50133],
      [114.126831, 22.501747],
      [114.127165, 22.502035],
      [114.127495, 22.502116],
      [114.127598, 22.502134],
      [114.12802, 22.50201],
      [114.128817, 22.50127],
      [114.128942, 22.500964],
      [114.12881, 22.500661],
      [114.128625, 22.50048]
     ]
    ]
   }
  },
  {
   "type": "Feature",
   "properties": {
    "name_zh": "上環",
    "name_en": "Sheung Wan",
    "source": "generated: mtr exits + rail stops, buffered 50m"
   },
   "geometry": {
    "type": "Polygon",
    "coordinates": [
     [
      [114.153624, 22.285556],
      [114.15318, 22.285449],
      [114.152093, 22.285693],
      [114.151755, 22.285967],
      [114.151557, 22.286437],
      [114.151528, 22.286657],
      [114.151667, 22.287667],
      [114.151815, 22.287937],
      [114.152114, 22.288058],
      [114.152429, 22.287978],
      [114.153953, 22.286984],
      [114.154158, 22.28659],
      [114.154129, 22.286156],
      [114.153973, 22.285854],
      [114.153624, 22.285556]
     ]
    ]
   }
  },
  {
   "type": "Feature",
   "properties": {
    "name_zh": "中環",
    "name_en": "Central",
    "source": "generated: mtr exits + rail stops, buffered 50m"
   },
   "geometry": {
    "type": "Polygon",
    "coordinates": [
     [
      [114.161183, 22.280661],
      [114.160846, 22.280582],
      [114.159507, 22.280726],
      [114.15708, 22.281373],
      [114.156826, 22.281536],
      [114.156709, 22.281681],
      [114.156613, 22.281967],
      [114.156734, 22.282245],
      [114.157513, 22.283061],
      [114.157771, 22.283201],
      [114.158069, 22.283173],
      [114.161582, 22.281756],
      [114.161824, 22.281541],
      [114.161858, 22.281233],
      [114.161668, 22.280977],
      [114.161183, 22.280661]
     ]
    ]
   }
  },
  {
   "type": "Feature",
   "properties": {
    "name_zh": "九龍",
    "name_en": "Kowloon",
    "source": "generated: mtr exits + rail stops, buffered 50m"
   },
   "geometry": {
    "type": "Polygon",
    "coordinates": [
     [
      [114.161736, 22.303797],
      [114.161426, 22.303622],
      [114.161072, 22.303695],
      [114.160402, 22.304119],
      [114.160216, 22.304348],
      [114.160217, 22.304635],
      [114.160327, 22.304927],
      [114.160828, 22.305996],
      [114.161053, 22.306211],
      [114.161375, 22.306247],
      [114.162335, 22.306048],
      [114.162653, 22.30583],
      [114.16269, 22.305466],
      [114.162389, 22.304644],
      [114.161736, 22.303797]
     ]
    ]
   }
  },
  {
   "type": "Feature",
   "properties": {
    "name_zh": "九龍塘",
    "name_en": "Kowloon Tong",
    "source": "generated: mtr exits + rail stops, buffered 50m"
   },
   "geometry": {
    "type": "Polygon",
    "coordinates": [
     [
      [114.176618, 22.336029],
      [114.176384, 22.336035],
      [114.175443, 22.336279],
      [114.175147, 22.336498],
      [114.174972, 22.336796],
      [114.174916, 22.337057],
      [114.174945, 22.33731],
      [114.17513, 22.337617],
      [114.175498, 22.337707],
      [114.178304, 22.337328],
      [114.178652, 22.337111],
      [114.178687, 22.336723],
      [114.178382, 22.336456],
      [114.177608, 22.336228],
      [114.176618, 22.336029]
     ]
    ]
   }
  },
  {
   "type": "Feature",
   "properties": {
    "name_zh": "九龍灣",
    "name_en": "Kowloon Bay",
    "source": "generated: mtr exits + rail stops, buffered 50m"
   },
   "geometry": {
    "type": "Polygon",
    "coordinates": [
     [
      [114.21464, 22.322661],
      [114.214536, 22.32234],
      [114.214219, 22.322174],
      [114.213868, 22.322258],
      [114.213677, 22.322544],
      [114.213514, 22.323448],
      [114.213486, 22.324441],
      [114.213614, 22.324757],
      [114.213943, 22.324901],
      [114.214288, 22.324794],
      [114.214456, 22.324494],
      [114.21464, 22.322661]
     ]
    ]
   }
  },
  {
   "type": "Feature",
   "properties": {
    "name_zh": "佐敦",
    "name_en": "Jordan",
    "source": "generated: mtr exits + rail stops, buffered 50m"
   },
   "geometry": {
    "type": "Polygon",
    "coordinates": [
     [
      [114.172385, 22.303707],
      [114.172226, 22.30344],
      [114.17192, 22.303328],
      [114.171607, 22.303423],
      [114.170879, 22.303946],
      [114.170693, 22.304337],
      [114.17079, 22.305456],
      [114.170895, 22.3057],
      [114.171129, 22.305849],
      [114.172089, 22.306129],
      [114.172412, 22.306119],
      [114.172657, 22.305924],
      [114.172715, 22.30563],
      [114.172385, 22.303707]
     ]
    ]
   }
  },
  {
   "type": "Feature",
   "properties": {
    "name_zh": "何文田",
    "name_en": "Ho Man Tin",
    "source": "generated: mtr exits + rail stops, buffered 50m"
   },
   "geometry": {
    "type": "Polygon",
    "coordinates": [
     [
      [114.182496, 22.308549],
      [114.182038, 22.308562],
      [114.181796, 22.308921],
      [114.181689, 22.310347],
      [114.181876, 22.310734],
      [114.183225, 22.3117],
      [114.183582, 22.31179],
      [114.183904, 22.311623],
      [114.184005, 22.311294],
      [114.183847, 22.310157],
      [114.183381, 22.309082],
      [114.183146, 22.308847],
      [114.182496, 22.308549]
     ]
    ]
   }
  },
  {
   "type": "Feature",
   "properties": {
    "name_zh": "何福堂",
    "name_en": "Hoh Fuk Tong",
    "source": "generated: rail stops, buffered 50m"
   },
   "geometry": {
    "type": "Polygon",
    "coordinates": [
     [
      [113.977886, 22.39737],
      [113.977744, 22.397052],
      [113.9774, 22.396921],
      [113.977056, 22.397052],
      [113.976914, 22.39737],
      [113.977056, 22.397688],
      [113.9774, 22.397819],
      [113.977744, 22.397688],
      [113.977886, 22.39737]
     ]
    ]
   }
  },
  {
   "type": "Feature",
   "properties": {
    "name_zh": "元朗",
    "name_en": "Yuen Long",
    "source": "generated: mtr exits + rail stops, buffered 50m"
   },
   "geometry": {
    "type": "Polygon",
    "coordinates": [
     [
      [114.034424, 22.445274],
      [114.034224, 22.445292],
      [114.0333, 22.445561],
      [114.033023, 22.445768],
      [114.032973, 22.446094],
      [114.033177, 22.446364],
      [114.033546, 22.44659],
      [114.033805, 22.446665],
      [114.036399, 22.446712],
      [114.036753, 22.44658],
      [114.037074, 22.446282],
      [114.037215, 22.445983],
      [114.037099, 22.445674],
      [114.036788, 22.445519],
      [114.034424, 22.445274]
     ]
    ]
   }
  },
  {
   "type": "Feature",
   "properties": {
    "name_zh": "兆康",
    "name_en": "Siu Hong",
    "source": "generated: mtr exits + rail stops, buffered 50m"
   },
   "geometry": {
    "type": "Polygon",
    "coordinates": [
     [
      [113.979022, 22.410773],
      [113.978748, 22.41055],
      [113.978383, 22.410567],
      [113.978134, 22.410814],
      [113.977696, 22.41187],
      [113.977681, 22.412149],
      [113.977848, 22.412383],
      [113.978799, 22.413079],
      [113.979123, 22.413176],
      [113.979436, 22.413052],
      [113.979584, 22.412769],
      [113.979653, 22.412083],
      [113.979603, 22.411839],
      [113.979022, 22.410773]
     ]
    ]
   }
  },
  {
   "type": "Feature",
   "properties": {
    "name_zh": "兆禧",
    "name_en": "Siu Hei",
    "source": "generated: rail stops, buffered 50m"
   },
   "geometry": {
    "type": "Polygon",
    "coordinates": [
     [
      [113.967386, 22.37524],
      [113.967244, 22.374922],
      [113.9669, 22.374791],
      [113.966556, 22.374922],
      [113.966414, 22.37524],
      [113.966556, 22.375558],
      [113.9669, 22.375689],
      [113.967244, 22.375558],
      [113.967386, 22.37524]
     ]
    ]
   }
  },
  {
   "type": "Feature",
   "properties": {
    "name_zh": "兆麟",
    "name_en": "Siu Lun",
    "source": "generated: rail stops, buffered 50m"
   },
   "geometry": {
    "type": "Polygon",
    "coordinates": [
     [
      [113.975576, 22.38456],
      [113.975434, 22.384242],
      [113.97509, 22.384111],
      [113.974746, 22.384242],
      [113.974604, 22.38456],
      [113.974746, 22.384878],
      [113.97509, 22.385009],
      [113.975434, 22.384878],
      [113.975576, 22.38456]
     ]
    ]
   }
  },
  {
   "type": "Feature",
   "properties": {
    "name_zh": "利東",
    "name_en": "Lei Tung",
    "source": "generated: mtr exits + rail stops, buffered 50m"
   },
   "geometry": {
    "type": "Polygon",
    "coordinates": [
     [
      [114.156624, 22.241045],
      [114.156545, 22.240722],
      [114.156247, 22.240538],
      [114.155894, 22.240592],
      [114.155676, 22.240855],
      [114.154871, 22.24351],
      [114.154945, 22.243895],
      [114.155317, 22.24408],
      [114.155705, 22.243926],
      [114.155869, 22.243696],
      [114.156463, 22.241977],
      [114.156624, 22.241045]
     ]
    ]
   }
  },
  {
   "type": "Feature",
   "properties": {
    "name_zh": "北角",
    "name_en": "North Point",
    "source": "generated: mtr exits + rail stops, buffered 50m"
   },
   "geometry": {
    "type": "Polygon",
    "coordinates": [
     [
      [114.201152, 22.29055],
      [114.200922, 22.29031],
      [114.200578, 22.290273],
      [114.200294, 22.290458],
      [114.20001, 22.290862],
      [114.199911, 22.291105],
      [114.199776, 22.291926],
      [114.199796, 22.292242],
      [114.199992, 22.292577],
      [114.200396, 22.292653],
      [114.200717, 22.292413],
      [114.201299, 22.291312],
      [114.201317, 22.290957],
      [114.201152, 22.29055]
     ]
    ]
   }
  },
  {
   "type": "Feature",
   "properties": {
    "name_zh": "南昌",
    "name_en": "Nam Cheong",
    "source": "generated: mtr exits + rail stops, buffered 50m"
   },
   "geometry": {
    "type": "Polygon",
    "coordinates": [
     [
      [114.154573, 22.324648],
      [114.154263, 22.324548],
      [114.153955, 22.324654],
      [114.152354, 22.3259],
      [114.15219, 22.326156],
      [114.152235, 22.32645],
      [114.153167, 22.328112],
      [114.153406, 22.328318],
      [114.153732, 22.328337],
      [114.153997, 22.328161],
      [114.155638, 22.325976],
      [114.15572, 22.325656],
      [114.155543, 22.32537],
      [114.154573, 22.324648]
     ]
    ]
   }
  },
  {
   "type": "Feature",
   "properties": {
    "name_zh": "博覽館",
    "name_en": "AsiaWorld-Expo",
    "source": "generated: rail stops, buffered 50m"
   },
   "geometry": {
    "type": "Polygon",
    "coordinates": [
     [
      [113.940883, 22.321184],
      [113.940523, 22.321236],
      [113.940304, 22.321505],
      [113.940349, 22.321839],
      [113.940632, 22.322051],
      [113.941126, 22.322189],
      [113.9436, 22.322688],
      [113.943965, 22.322627],
      [113.944178, 22.322347],
      [113.944115, 22.32201],
      [113.943813, 22.321811],
      [113.940883, 22.321184]
     ]
    ]
   }
  },
  {
   "type": "Feature",
   "properties": {
    "name_zh": "友愛",
    "name_en": "Yau Oi",
    "source": "generated: rail stops, buffered 50m"
   },
   "geometry": {
    "type": "Polygon",
    "coordinates": [
     [
      [113.974006, 22.38672],
      [113.973864, 22.386402],
      [113.97352, 22.386271],
      [113.973176, 22.386402],
      [113.973034, 22.38672],
      [113.973176, 22.387038],
      [113.97352, 22.387169],
      [113.973864, 22.387038],
      [113.974006, 22.38672]
     ]
    ]
   }
  },
  {
   "type": "Feature",
   "properties": {
    "name_zh": "啟德",
    "name_en": "Kai Tak",
    "source": "generated: mtr exits + rail stops, buffered 50m"
   },
   "geometry": {
    "type": "Polygon",
    "coordinates": [
     [
      [114.19909, 22.329418],
      [114.198778, 22.329345],
      [114.198485, 22.329468],
      [114.19834, 22.329734],
      [114.198175, 22.330881],
      [114.198223, 22.331143],
      [114.198423, 22.331334],
      [114.19955, 22.331903],
      [114.199848, 22.331954],
      [114.20012, 22.331831],
      [114.200868, 22.331163],
      [114.201014, 22.330799],
      [114.200798, 22.330466],
      [114.19909, 22.329418]
     ]
    ]
   }
  },
  {
   "type": "Feature",
   "properties": {
    "name_zh": "土瓜灣",
    "name_en": "To Kwa Wan",
    "source": "generated: mtr exits + rail stops, buffered 50m"
   },
   "geometry": {
    "type": "Polygon",
    "coordinates": [
     [
      [114.188347, 22.31531],
      [114.188178, 22.314978],
      [114.187798, 22.314873],
      [114.18746, 22.315064],
      [114.186752, 22.316022],
      [114.186667, 22.316263],
      [114.186619, 22.317916],
      [114.186763, 22.318247],
      [114.187122, 22.318377],
      [114.187638, 22.318359],
      [114.188079, 22.318231],
      [114.188311, 22.318063],
      [114.188396, 22.317802],
      [114.188347, 22.31531]
     ]
    ]
   }
  },
  {
   "type": "Feature",
   "properties": {
    "name_zh": "坑口",
    "name_en": "Hang Hau",
    "source": "generated: mtr exits + rail stops, buffered 50m"
   },
   "geometry": {
    "type": "Polygon",
    "coordinates": [
     [
      [114.265088, 22.315393],
      [114.265138, 22.315086],
      [114.264961, 22.314823],
      [114.264642, 22.314728],
      [114.264409, 22.314737],
      [114.264027, 22.314934],
      [114.263523, 22.315621],
      [114.263444, 22.315936],
      [114.263615, 22.316218],
      [114.263838, 22.31639],
      [114.264239, 22.316486],
      [114.264574, 22.31626],
      [114.265088, 22.315393]
     ]
    ]
   }
  },
  {
   "type": "Feature",
   "properties": {
    "name_zh": "坑尾村",
    "name_en": "Hang Mei Tsuen",
    "source": "generated: rail stops, buffered 50m"
   },
   "geometry": {
    "type": "Polygon",
    "coordinates": [
     [
      [114.006016, 22.44509],
      [114.005874, 22.444772],
      [114.00553, 22.444641],
      [114.005186, 22.444772],
      [114.005044, 22.44509],
      [114.005186, 22.445408],
      [114.00553, 22.445539],
      [114.005874, 22.445408],
      [114.006016, 22.44509]
     ]
    ]
   }
  },
  {
   "type": "Feature",
   "properties": {
    "name_zh": "堅尼地城",
    "name_en": "Kennedy Town",
    "source": "generated: mtr exits + rail stops, buffered 50m"
   },
   "geometry": {
    "type": "Polygon",
    "coordinates": [
     [
      [114.128949, 22.280871],
      [114.128722, 22.280709],
      [114.128435, 22.280694],
      [114.127921, 22.280811],
      [114.127629, 22.281005],
      [114.12756, 22.281331],
      [114.127753, 22.281612],
      [114.128985, 22.282434],
      [114.129307, 22.282517],
      [114.129611, 22.282389],
      [114.129753, 22.282109],
      [114.129666, 22.28181],
      [114.128949, 22.280871]
     ]
    ]
   }
  },
  {
   "type": "Feature",
   "properties": {
    "name_zh": "塘坊村",
    "name_en": "Tong Fong Tsuen",
    "source": "generated: rail stops, buffered 50m"
   },
   "geometry": {
    "type": "Polygon",
    "coordinates": [
     [
      [114.007526, 22.44011],
      [114.007384, 22.439792],
      [114.00704, 22.439661],
      [114.006696, 22.439792],
      [114.006554, 22.44011],
      [114.006696, 22.440428],
      [114.00704, 22.440559],
      [114.007384, 22.440428],
      [114.007526, 22.44011]
     ]
    ]
   }
  },
  {
   "type": "Feature",
   "properties": {
    "name_zh": "大圍",
    "name_en": "Tai Wai",
    "source": "generated: mtr exits + rail stops, buffered 50m"
   },
   "geometry": {
    "type": "Polygon",
    "coordinates": [
     [
      [114.178075, 22.371762],
      [114.177654, 22.371727],
      [114.177033, 22.371944],
      [114.17678, 22.372147],
      [114.176728, 22.372452],
      [114.176903, 22.372717],
      [114.177952, 22.373484],
      [114.178632, 22.37389],
      [114.179012, 22.373947],
      [114.179634, 22.373802],
      [114.179947, 22.373573],
      [114.179968, 22.373204],
      [114.179813, 22.372834],
      [114.17961, 22.372611],
      [114.178075, 22.371762]
     ]
    ]
   }
  },
  {
   "type": "Feature",
   "properties": {
    "name_zh": "大埔墟",
    "name_en": "Tai Po Market",
    "source": "generated: mtr exits + rail stops, buffered 50m"
   },
   "geometry": {
    "type": "Polygon",
    "coordinates": [
     [
      [114.171345, 22.444592],
      [114.171583, 22.444277],
      [114.17147, 22.443907],
      [114.17109, 22.443753],
      [114.169874, 22.443803],
      [114.169488, 22.443988],
      [114.169283, 22.444251],
      [114.169323, 22.444573],
      [114.169586, 22.444786],
      [114.170223, 22.445002],
      [114.170632, 22.44497],
      [114.171345, 22.444592]
     ]
    ]
   }
  },
  {
   "type": "Feature",
   "properties": {
    "name_zh": "大學",
    "name_en": "University",
    "source": "generated: mtr exits + rail stops, buffered 50m"
   },
   "geometry": {
    "type": "Polygon",
    "coordinates": [
     [
      [114.210779, 22.413262],
      [114.210593, 22.412998],
      [114.210264, 22.412912],
      [114.209956, 22.413047],
      [114.209577, 22.413408],
      [114.209461, 22.413849],
      [114.20963, 22.414319],
      [114.21031, 22.41533],
      [114.210573, 22.41552],
      [114.210907, 22.415509],
      [114.211153, 22.415301],
      [114.211197, 22.414995],
      [114.210779, 22.413262]
     ]
    ]
   }
  },
  {
   "type": "Feature",
   "properties": {
    "name_zh": "大棠路",
    "name_en": "Tai Tong Road",
    "source": "generated: rail stops, buffered 50m"
   },
   "geometry": {
    "type": "Polygon",
    "coordinates": [
     [
      [114.029456, 22.44452],
      [114.029314, 22.444202],
      [114.02897, 22.444071],
      [114.028626, 22.444202],
      [114.028484, 22.44452],
      [114.028626, 22.444838],
      [114.02897, 22.444969],
      [114.029314, 22.444838],
      [114.029456, 22.44452]
     ]
    ]
   }
  },
  {
   "type": "Feature",
   "properties": {
    "name_zh": "大水坑",
    "name_en": "Tai Shui Hang",
    "source": "generated: rail stops, buffered 50m"
   },
   "geometry": {
    "type": "Polygon",
    "coordinates": [
     [
      [114.22283, 22.407482],
      [114.222542, 22.407218],
      [114.222138, 22.407248],
      [114.222051, 22.407293],
      [114.22182, 22.407565],
      [114.221866, 22.407908],
      [114.222178, 22.408413],
      [114.222454, 22.408618],
      [114.222807, 22.408596],
      [114.22305, 22.408359],
      [114.223055, 22.408031],
      [114.22283, 22.407482]
     ]
    ]
   }
  },
  {
   "type": "Feature",
   "properties": {
    "name_zh": "大窩口",
    "name_en": "Tai Wo Hau",
    "source": "generated: rail stops, buffered 50m"
   },
   "geometry": {
    "type": "Polygon",
    "coordinates": [
     [
      [114.124461, 22.3702],
      [114.1241, 22.370264],
      [114.123891, 22.370543],
      [114.123953, 22.370878],
      [114.124251, 22.371077],
      [114.125785, 22.37142],
      [114.126149, 22.371369],
      [114.12637, 22.371096],
      [114.126319, 22.370758],
      [114.126027, 22.37055],
      [114.124461, 22.3702]
     ]
    ]
   }
  },
  {
   "type": "Feature",
   "properties": {
    "name_zh": "大興(北)",
    "name_en": "Tai Hing (North)",
    "source": "generated: rail stops, buffered 50m"
   },
   "geometry": {
    "type": "Polygon",
    "coordinates": [
     [
      [113.970466, 22.4046],
      [113.970324, 22.404282],
      [113.96998, 22.404151],
      [113.969636, 22.404282],
      [113.969494, 22.4046],
      [113.969636, 22.404918],
      [113.96998, 22.405049],
      [113.970324, 22.404918],
      [113.970466, 22.4046]
     ]
    ]
   }
  },
  {
   "type": "Feature",
   "properties": {
    "name_zh": "大興(南)",
    "name_en": "Tai Hing (South)",
    "source": "generated: rail stops, buffered 50m"
   },
   "geometry": {
    "type": "Polygon",
    "coordinates": [
     [
      [113.972456, 22.40267],
      [113.972314, 22.402352],
      [113.97197, 22.402221],
      [113.971626, 22.402352],
      [113.971484, 22.40267],
      [113.971626, 22.402988],
      [113.97197, 22.403119],
      [113.972314, 22.402988],
      [113.972456, 22.40267]
     ]
    ]
   }
  },
  {
   "type": "Feature",
   "properties": {
    "name_zh": "天后",
    "name_en": "Tin Hau",
    "source": "generated: mtr exits + rail stops, buffered 50m"
   },
   "geometry": {
    "type": "Polygon",
    "coordinates": [
     [
      [114.192312, 22.2821],
      [114.192091, 22.28185],
      [114.191746, 22.281801],
      [114.191454, 22.28198],
      [114.191344, 22.282122],
      [114.191255, 22.282406],
      [114.191284, 22.28293],
      [114.191429, 22.283228],
      [114.191754, 22.283356],
      [114.192075, 22.283365],
      [114.192478, 22.283185],
      [114.192551, 22.282776],
      [114.192312, 22.2821]
     ]
    ]
   }
  },
  {
   "type": "Feature",
   "properties": {
    "name_zh": "天富",
    "name_en": "Tin Fu",
    "source": "generated: rail stops, buffered 50m"
   },
   "geometry": {
    "type": "Polygon",
    "coordinates": [
     [
      [113.998186, 22.46454],
      [113.998044, 22.464222],
      [113.9977, 22.464091],
      [113.997356, 22.464222],
      [113.997214, 22.46454],
      [113.997356, 22.464858],
      [113.9977, 22.464989],
      [113.998044, 22.464858],
      [113.998186, 22.46454]
     ]
    ]
   }
  },
  {
   "type": "Feature",
   "properties": {
    "name_zh": "天恒",
    "name_en": "Tin Heng",
    "source": "generated: rail stops, buffered 50m"
   },
   "geometry": {
    "type": "Polygon",
    "coordinates": [
     [
      [114.001246, 22.46966],
      [114.001104, 22.469342],
      [114.00076, 22.469211],
      [114.000416, 22.469342],
      [114.000274, 22.46966],
      [114.000416, 22.469978],
      [114.00076, 22.470109],
      [114.001104, 22.469978],
      [114.001246, 22.46966]
     ]
    ]
   }
  },
  {
   "type": "Feature",
   "properties": {
    "name_zh": "天悅",
    "name_en": "Tin Yuet",
    "source": "generated: rail stops, buffered 50m"
   },
   "geometry": {
    "type": "Polygon",
    "coordinates": [
     [
      [114.002046, 22.46282],
      [114.001904, 22.462502],
      [114.00156, 22.462371],
      [114.001216, 22.462502],
      [114.001074, 22.46282],
      [114.001216, 22.463138],
      [114.00156, 22.463269],
      [114.001904, 22.463138],
      [114.002046, 22.46282]
     ]
    ]
   }
  },
  {
   "type": "Feature",
   "properties": {
    "name_zh": "天慈",
    "name_en": "Tin Tsz",
    "source": "generated: rail stops, buffered 50m"
   },
   "geometry": {
    "type": "Polygon",
    "coordinates": [
     [
      [114.006506, 22.4527],
      [114.006364, 22.452382],
      [114.00602, 22.452251],
      [114.005676, 22.452382],
      [114.005534, 22.4527],
      [114.005676, 22.453018],
      [114.00602, 22.453149],
      [114.006364, 22.453018],
      [114.006506, 22.4527]
     ]
    ]
   }
  },
  {
   "type": "Feature",
   "properties": {
    "name_zh": "天榮",
    "name_en": "Tin Wing",
    "source": "generated: rail stops, buffered 50m"
   },
   "geometry": {
    "type": "Polygon",
    "coordinates": [
     [
      [114.003086, 22.45953],
      [114.002944, 22.459212],
      [114.0026, 22.459081],
      [114.002256, 22.459212],
      [114.002114, 22.45953],
      [114.002256, 22.459848],
      [114.0026, 22.459979],
      [114.002944, 22.459848],
      [114.003086, 22.45953]
     ]
    ]
   }
  },
  {
   "type": "Feature",
   "properties": {
    "name_zh": "天水圍",
    "name_en": "Tin Shui Wai",
    "source": "generated: mtr exits + rail stops, buffered 50m"
   },
   "geometry": {
    "type": "Polygon",
    "coordinates": [
     [
      [114.003929, 22.446504],
      [114.003567, 22.44636],
      [114.003208, 22.446511],
      [114.003053, 22.446674],
      [114.002931, 22.446972],
      [114.003053, 22.44727],
      [114.005265, 22.449558],
      [114.005699, 22.449829],
      [114.00608, 22.449885],
      [114.006386, 22.449667],
      [114.006422, 22.449311],
      [114.006285, 22.448921],
      [114.00618, 22.448755],
      [114.003929, 22.446504]
     ]
    ]
   }
  },
  {
   "type": "Feature",
   "properties": {
    "name_zh": "天湖",
    "name_en": "Tin Wu",
    "source": "generated: rail stops, buffered 50m"
   },
   "geometry": {
    "type": "Polygon",
    "coordinates": [
     [
      [114.006256, 22.45499],
      [114.006114, 22.454672],
      [114.00577, 22.454541],
      [114.005426, 22.454672],
      [114.005284, 22.45499],
      [114.005426, 22.455308],
      [114.00577, 22.455439],
      [114.006114, 22.455308],
      [114.006256, 22.45499]
     ]
    ]
   }
  },
  {
   "type": "Feature",
   "properties": {
    "name_zh": "天瑞",
    "name_en": "Tin Shui",
    "source": "generated: rail stops, buffered 50m"
   },
   "geometry": {
    "type": "Polygon",
    "coordinates": [
     [
      [113.999916, 22.45592],
      [113.999774, 22.455602],
      [113.99943, 22.455471],
      [113.999086, 22.455602],
      [113.998944, 22.45592],
      [113.999086, 22.456238],
      [113.99943, 22.456369],
      [113.999774, 22.456238],
      [113.999916, 22.45592]
     ]
    ]
   }
  },
  {
   "type": "Feature",
   "properties": {
    "name_zh": "天秀",
    "name_en": "Tin Sau",
    "source": "generated: rail stops, buffered 50m"
   },
   "geometry": {
    "type": "Polygon",
    "coordinates": [
     [
      [114.003456, 22.46555],
      [114.003314, 22.465232],
      [114.00297, 22.465101],
      [114.002626, 22.465232],
      [114.002484, 22.46555],
      [114.002626, 22.465868],
      [114.00297, 22.465999],
      [114.003314, 22.465868],
      [114.003456, 22.46555]
     ]
    ]
   }
  },
  {
   "type": "Feature",
   "properties": {
    "name_zh": "天耀",
    "name_en": "Tin Yiu",
    "source": "generated: rail stops, buffered 50m"
   },
   "geometry": {
    "type": "Polygon",
    "coordinates": [
     [
      [114.003156, 22.45038],
      [114.003014, 22.450062],
      [114.00267, 22.449931],
      [114.002326, 22.450062],
      [114.002184, 22.45038],
      [114.002326, 22.450698],
      [114.00267, 22.450829],
      [114.003014, 22.450698],
      [114.003156, 22.45038]
     ]
    ]
   }
  },
  {
   "type": "Feature",
   "properties": {
    "name_zh": "天逸",
    "name_en": "Tin Yat",
    "source": "generated: rail stops, buffered 50m"
   },
   "geometry": {
    "type": "Polygon",
    "coordinates": [
     [
      [113.999316, 22.46697],
      [113.999174, 22.466652],
      [113.99883, 22.466521],
      [113.998486, 22.466652],
      [113.998344, 22.46697],
      [113.998486, 22.467288],
      [113.99883, 22.467419],
      [113.999174, 22.467288],
      [113.999316, 22.46697]
     ]
    ]
   }
  },
  {
   "type": "Feature",
   "properties": {
    "name_zh": "太古",
    "name_en": "Tai Koo",
    "source": "generated: mtr exits + rail stops, buffered 50m"
   },
   "geometry": {
    "type": "Polygon",
    "coordinates": [
     [
      [114.217284, 22.284276],
      [114.217103, 22.284052],
      [114.216813, 22.283971],
      [114.215008, 22.284007],
      [114.214631, 22.284186],
      [114.214549, 22.284571],
      [114.214724, 22.285185],
      [114.214933, 22.285449],
      [114.216389, 22.286307],
      [114.216821, 22.286348],
      [114.217137, 22.286201],
      [114.217554, 22.28584],
      [114.217682, 22.285369],
      [114.217284, 22.284276]
     ]
    ]
   }
  },
  {
   "type": "Feature",
   "properties": {
    "name_zh": "太和",
    "name_en": "Tai Wo",
    "source": "generated: rail stops, buffered 50m"
   },
   "geometry": {
    "type": "Polygon",
    "coordinates": [
     [
      [114.161426, 22.45056],
      [114.161047, 22.450478],
      [114.160725, 22.450681],
      [114.160667, 22.451037],
      [114.160711, 22.451188],
      [114.161066, 22.451507],
      [114.161323, 22.451564],
      [114.161741, 22.451478],
      [114.161923, 22.45112],
      [114.161728, 22.450768],
      [114.161426, 22.45056]
     ]
    ]
   }
  },
  {
   "type": "Feature",
   "properties": {
    "name_zh": "太子",
    "name_en": "Prince Edward",
    "source": "generated: mtr exits + rail stops, buffered 50m"
   },
   "geometry": {
    "type": "Polygon",
    "coordinates": [
     [
      [114.169446, 22.324081],
      [114.16948, 22.323759],
      [114.169271, 22.323499],
      [114.168927, 22.323437],
      [114.167946, 22.323599],
      [114.167568, 22.323907],
      [114.167209, 22.324963],
      [114.167254, 22.325325],
      [114.167574, 22.325538],
      [114.167855, 22.325592],
      [114.168464, 22.32551],
      [114.168796, 22.325273],
      [114.169446, 22.324081]
     ]
    ]
   }
  },
  {
   "type": "Feature",
   "properties": {
    "name_zh": "奧運",
    "name_en": "Olympic",
    "source": "generated: mtr exits + rail stops, buffered 50m"
   },
   "geometry": {
    "type": "Polygon",
    "coordinates": [
     [
      [114.161634, 22.316624],
      [114.161349, 22.316312],
      [114.160908, 22.316342],
      [114.158899, 22.317471],
      [114.158667, 22.317828],
      [114.158646, 22.318207],
      [114.158738, 22.31847],
      [114.15898, 22.318634],
      [114.160407, 22.319067],
      [114.160828, 22.319014],
      [114.161576, 22.318554],
      [114.161791, 22.318156],
      [114.161723, 22.317009],
      [114.161634, 22.316624]
     ]
    ]
   }
  },
  {
   "type": "Feature",
   "properties": {
    "name_zh": "安定",
    "name_en": "On Ting",
    "source": "generated: rail stops, buffered 50m"
   },
   "geometry": {
    "type": "Polygon",
    "coordinates": [
     [
      [113.975556, 22.38764],
      [113.975414, 22.387322],
      [113.97507, 22.387191],
      [113.974726, 22.387322],
      [113.974584, 22.38764],
      [113.974726, 22.387958],
      [113.97507, 22.388089],
      [113.975414, 22.387958],
      [113.975556, 22.38764]
     ]
    ]
   }
  },
  {
   "type": "Feature",
   "properties": {
    "name_zh": "宋皇臺",
    "name_en": "Sung Wong Toi",
    "source": "generated: mtr exits + rail stops, buffered 50m"
   },
   "geometry": {
    "type": "Polygon",
    "coordinates": [
     [
      [114.190628, 22.325171],
      [114.190199, 22.325381],
      [114.189276, 22.326737],
      [114.189203, 22.32702],
      [114.189369, 22.328582],
      [114.189545, 22.328886],
      [114.189903, 22.328985],
      [114.19023, 22.32882],
      [114.192307, 22.326436],
      [114.192411, 22.326099],
      [114.192222, 22.325796],
      [114.191484, 22.325281],
      [114.191209, 22.325191],
      [114.190628, 22.325171]
     ]
    ]
   }
  },
  {
   "type": "Feature",
   "properties": {
    "name_zh": "寶琳",
    "name_en": "Po Lam",
    "source": "generated: mtr exits + rail stops, buffered 50m"
   },
   "geometry": {
    "type": "Polygon",
    "coordinates": [
     [
      [114.258782, 22.321754],
      [114.258629, 22.32147],
      [114.258311, 22.321351],
      [114.257987, 22.321456],
      [114.257846, 22.321584],
      [114.257021, 22.32265],
      [114.256932, 22.322947],
      [114.257072, 22.323228],
      [114.257218, 22.323363],
      [114.257601, 22.323494],
      [114.257957, 22.323309],
      [114.258723, 22.322324],
      [114.258812, 22.322016],
      [114.258782, 22.321754]
     ]
    ]
   }
  },
  {
   "type": "Feature",
   "properties": {
    "name_zh": "將軍澳",
    "name_en": "Tseung Kwan O",
    "source": "generated: mtr exits + rail stops, buffered 50m"
   },
   "geometry": {
    "type": "Polygon",
    "coordinates": [
     [
      [114.25932, 22.306585],
      [114.258955, 22.306598],
      [114.258703, 22.306842],
      [114.258625, 22.307022],
      [114.258625, 22.307353],
      [114.258869, 22.307594],
      [114.25977, 22.307977],
      [114.260634, 22.308166],
      [114.260997, 22.308114],
      [114.261216, 22.307842],
      [114.261265, 22.307671],
      [114.261225, 22.307348],
      [114.26096, 22.307135],
      [114.25932, 22.306585]
     ]
    ]
   }
  },
  {
   "type": "Feature",
   "properties": {
    "name_zh": "尖東",
    "name_en": "East Tsim Sha Tsui",
    "source": "generated: mtr exits + rail stops, buffered 50m"
   },
   "geometry": {
    "type": "Polygon",
    "coordinates": [
     [
      [114.173815, 22.294622],
      [114.170694, 22.29465],
      [114.170394, 22.294751],
      [114.170228, 22.295004],
      [114.169985, 22.296042],
      [114.170022, 22.296332],
      [114.170243, 22.296539],
      [114.173776, 22.298165],
      [114.1741, 22.298201],
      [114.176293, 22.29774],
      [114.176589, 22.297553],
      [114.176665, 22.297229],
      [114.176606, 22.296904],
      [114.176503, 22.296692],
      [114.175026, 22.295025],
      [114.174784, 22.294878],
      [114.173815, 22.294622]
     ]
    ]
   }
  },
  {
   "type": "Feature",
   "properties": {
    "name_zh": "尖沙咀",
    "name_en": "Tsim Sha Tsui",
    "source": "generated: mtr exits + rail stops, buffered 50m"
   },
   "geometry": {
    "type": "Polygon",
    "coordinates": [
     [
      [114.172569, 22.295958],
      [114.172272, 22.295748],
      [114.171902, 22.295795],
      [114.171677, 22.296072],
      [114.171548, 22.296569],
      [114.171392, 22.298267],
      [114.171514, 22.298603],
      [114.171931, 22.299037],
      [114.172255, 22.299186],
      [114.172497, 22.299204],
      [114.172793, 22.299137],
      [114.172988, 22.298921],
      [114.173483, 22.297766],
      [114.173452, 22.297376],
      [114.172569, 22.295958]
     ]
    ]
   }
  },
  {
   "type": "Feature",
   "properties": {
    "name_zh": "屏山",
    "name_en": "Ping Shan",
    "source": "generated: rail stops, buffered 50m"
   },
   "geometry": {
    "type": "Polygon",
    "coordinates": [
     [
      [114.012246, 22.44282],
      [114.012104, 22.442502],
      [114.01176, 22.442371],
      [114.011416, 22.442502],
      [114.011274, 22.44282],
      [114.011416, 22.443138],
      [114.01176, 22.443269],
      [114.012104, 22.443138],
      [114.012246, 22.44282]
     ]
    ]
   }
  },
  {
   "type": "Feature",
   "properties": {
    "name_zh": "屯門",
    "name_en": "Tuen Mun",
    "source": "generated: mtr exits + rail stops, buffered 50m"
   },
   "geometry": {
    "type": "Polygon",
    "coordinates": [
     [
      [113.973727, 22.39349],
      [113.973361, 22.393273],
      [113.972953, 22.393415],
      [113.972331, 22.394088],
      [113.972245, 22.394468],
      [113.972796, 22.396528],
      [113.973017, 22.396805],
      [113.973385, 22.396856],
      [113.973618, 22.396802],
      [113.97394, 22.396558],
      [113.974027, 22.396387],
      [113.974259, 22.394487],
      [113.974193, 22.394213],
      [113.973727, 22.39349]
     ]
    ]
   }
  },
  {
   "type": "Feature",
   "properties": {
    "name_zh": "屯門碼頭",
    "name_en": "Tuen Mun Ferry Pier",
    "source": "generated: rail stops, buffered 50m"
   },
   "geometry": {
    "type": "Polygon",
    "coordinates": [
     [
      [113.967606, 22.37271],
      [113.967464, 22.372392],
      [113.96712, 22.372261],
      [113.966776, 22.372392],
      [113.966634, 22.37271],
      [113.966776, 22.373028],
      [113.96712, 22.373159],
      [113.967464, 22.373028],
      [113.967606, 22.37271]
     ]
    ]
   }
  },
  {
   "type": "Feature",
   "properties": {
    "name_zh": "屯門醫院",
    "name_en": "Tuen Mun Hospital",
    "source": "generated: rail stops, buffered 50m"
   },
   "geometry": {
    "type": "Polygon",
    "coordinates": [
     [
      [113.977636, 22.40777],
      [113.977494, 22.407452],
      [113.97715, 22.407321],
      [113.976806, 22.407452],
      [113.976664, 22.40777],
      [113.976806, 22.408088],
      [113.97715, 22.408219],
      [113.977494, 22.408088],
      [113.977636, 22.40777]
     ]
    ]
   }
  },
  {
   "type": "Feature",
   "properties": {
    "name_zh": "山景(北)",
    "name_en": "Shan King (North)",
    "source": "generated: rail stops, buffered 50m"
   },
   "geometry": {
    "type": "Polygon",
    "coordinates": [
     [
      [113.967106, 22.39851],
      [113.966964, 22.398192],
      [113.96662, 22.398061],
      [113.966276, 22.398192],
      [113.966134, 22.39851],
      [113.966276, 22.398828],
      [113.96662, 22.398959],
      [113.966964, 22.398828],
      [113.967106, 22.39851]
     ]
    ]
   }
  },
  {
   "type": "Feature",
   "properties": {
    "name_zh": "山景(南)",
    "name_en": "Shan King (South)",
    "source": "generated: rail stops, buffered 50m"
   },
   "geometry": {
    "type": "Polygon",
    "coordinates": [
     [
      [113.966466, 22.39662],
      [113.966324, 22.396302],
      [113.96598, 22.396171],
      [113.965636, 22.396302],
      [113.965494, 22.39662],
      [113.965636, 22.396938],
      [113.96598, 22.397069],
      [113.966324, 22.396938],
      [113.966466, 22.39662]
     ]
    ]
   }
  },
  {
   "type": "Feature",
   "properties": {
    "name_zh": "市中心",
    "name_en": "Town Centre",
    "source": "generated: rail stops, buffered 50m"
   },
   "geometry": {
    "type": "Polygon",
    "coordinates": [
     [
      [113.975376, 22.39136],
      [113.975234, 22.391042],
      [113.97489, 22.390911],
      [113.974546, 22.391042],
      [113.974404, 22.39136],
      [113.974546, 22.391678],
      [113.97489, 22.391809],
      [113.975234, 22.391678],
      [113.975376, 22.39136]
     ]
    ]
   }
  },
  {
   "type": "Feature",
   "properties": {
    "name_zh": "康城",
    "name_en": "LOHAS Park",
    "source": "generated: mtr exits + rail stops, buffered 50m"
   },
   "geometry": {
    "type": "Polygon",
    "coordinates": [
     [
      [114.26867, 22.294977],
      [114.268312, 22.29489],
      [114.267991, 22.295061],
      [114.267894, 22.295391],
      [114.268077, 22.295689],
      [114.269416, 22.296628],
      [114.269774, 22.296697],
      [114.270082, 22.296516],
      [114.270167, 22.296188],
      [114.269981, 22.295897],
      [114.26867, 22.294977]
     ]
    ]
   }
  },
  {
   "type": "Feature",
   "properties": {
    "name_zh": "康樂路",
    "name_en": "Hong Lok Road",
    "source": "generated: rail stops, buffered 50m"
   },
   "geometry": {
    "type": "Polygon",
    "coordinates": [
     [
      [114.027096, 22.44455],
      [114.026954, 22.444232],
      [114.02661, 22.444101],
      [114.026266, 22.444232],
      [114.026124, 22.44455],
      [114.026266, 22.444868],
      [114.02661, 22.444999],
      [114.026954, 22.444868],
      [114.027096, 22.44455]
     ]
    ]
   }
  },
  {
   "type": "Feature",
   "properties": {
    "name_zh": "建安",
    "name_en": "Kin On",
    "source": "generated: rail stops, buffered 50m"
   },
   "geometry": {
    "type": "Polygon",
    "coordinates": [
     [
      [113.969386, 22.39513],
      [113.969244, 22.394812],
      [113.9689, 22.394681],
      [113.968556, 22.394812],
      [113.968414, 22.39513],
      [113.968556, 22.395448],
      [113.9689, 22.395579],
      [113.969244, 22.395448],
      [113.969386, 22.39513]
     ]
    ]
   }
  },
  {
   "type": "Feature",
   "properties": {
    "name_zh": "建生",
    "name_en": "Kin Sang",
    "source": "generated: rail stops, buffered 50m"
   },
   "geometry": {
    "type": "Polygon",
    "coordinates": [
     [
      [113.969666, 22.40673],
      [113.969524, 22.406412],
      [113.96918, 22.406281],
      [113.968836, 22.406412],
      [113.968694, 22.40673],
      [113.968836, 22.407048],
      [113.96918, 22.407179],
      [113.969524, 22.407048],
      [113.969666, 22.40673]
     ]
    ]
   }
  },
  {
   "type": "Feature",
   "properties": {
    "name_zh": "彩虹",
    "name_en": "Choi Hung",
    "source": "generated: mtr exits + rail stops, buffered 50m"
   },
   "geometry": {
    "type": "Polygon",
    "coordinates": [
     [
      [114.209411, 22.333563],
      [114.209099, 22.333621],
      [114.207565, 22.334452],
      [114.207369, 22.334652],
      [114.207059, 22.335275],
      [114.207038, 22.335602],
      [114.207264, 22.335855],
      [114.207633, 22.336045],
      [114.208128, 22.336032],
      [114.209299, 22.33535],
      [114.209446, 22.335217],
      [114.210099, 22.334301],
      [114.210178, 22.334014],
      [114.210046, 22.333744],
      [114.209761, 22.333609],
      [114.209411, 22.333563]
     ]
    ]
   }
  },
  {
   "type": "Feature",
   "properties": {
    "name_zh": "恆安",
    "name_en": "Heng On",
    "source": "generated: mtr exits + rail stops, buffered 50m"
   },
   "geometry": {
    "type": "Polygon",
    "coordinates": [
     [
      [114.226398, 22.417681],
      [114.226167, 22.417391],
      [114.22578, 22.417351],
      [114.225654, 22.417387],
      [114.225356, 22.41763],
      [114.225353, 22.417997],
      [114.225634, 22.418592],
      [114.225881, 22.418823],
      [114.226232, 22.418839],
      [114.226503, 22.418633],
      [114.226553, 22.418313],
      [114.226398, 22.417681]
     ]
    ]
   }
  },
  {
   "type": "Feature",
   "properties": {
    "name_zh": "新圍",
    "name_en": "San Wai",
    "source": "generated: rail stops, buffered 50m"
   },
   "geometry": {
    "type": "Polygon",
    "coordinates": [
     [
      [113.964906, 22.40529],
      [113.964764, 22.404972],
      [113.96442, 22.404841],
      [113.964076, 22.404972],
      [113.963934, 22.40529],
      [113.964076, 22.405608],
      [113.96442, 22.405739],
      [113.964764, 22.405608],
      [113.964906, 22.40529]
     ]
    ]
   }
  },
  {
   "type": "Feature",
   "properties": {
    "name_zh": "新墟",
    "name_en": "San Hui",
    "source": "generated: rail stops, buffered 50m"
   },
   "geometry": {
    "type": "Polygon",
    "coordinates": [
     [
      [113.978526, 22.40022],
      [113.978384, 22.399902],
      [113.97804, 22.399771],
      [113.977696, 22.399902],
      [113.977554, 22.40022],
      [113.977696, 22.400538],
      [113.97804, 22.400669],
      [113.978384, 22.400538],
      [113.978526, 22.40022]
     ]
    ]
   }
  },
  {
   "type": "Feature",
   "properties": {
    "name_zh": "旺角",
    "name_en": "Mong Kok",
    "source": "generated: mtr exits + rail stops, buffered 50m"
   },
   "geometry": {
    "type": "Polygon",
    "coordinates": [
     [
      [114.169427, 22.317894],
      [114.169135, 22.317924],
      [114.168436, 22.318213],
      [114.168148, 22.318631],
      [114.168177, 22.320202],
      [114.16848, 22.320611],
      [114.169559, 22.320994],
      [114.169942, 22.320955],
      [114.170174, 22.320671],
      [114.170533, 22.319308],
      [114.170522, 22.31906],
      [114.170241, 22.318274],
      [114.169873, 22.317975],
      [114.169427, 22.317894]
     ]
    ]
   }
  },
  {
   "type": "Feature",
   "properties": {
    "name_zh": "旺角東",
    "name_en": "Mong Kok East",
    "source": "generated: mtr exits + rail stops, buffered 50m"
   },
   "geometry": {
    "type": "Polygon",
    "coordinates": [
     [
      [114.172487, 22.321245],
      [114.172135, 22.321384],
      [114.172002, 22.321716],
      [114.17205, 22.32261],
      [114.17229, 22.322975],
      [114.172406, 22.323038],
      [114.172734, 22.323094],
      [114.173024, 22.322941],
      [114.173138, 22.322651],
      [114.173138, 22.321694],
      [114.172996, 22.321376],
      [114.172652, 22.321245],
      [114.172487, 22.321245]
     ]
    ]
   }
  },
  {
   "type": "Feature",
   "properties": {
    "name_zh": "景峰",
    "name_en": "Prime View",
    "source": "generated: rail stops, buffered 50m"
   },
   "geometry": {
    "type": "Polygon",
    "coordinates": [
     [
      [113.979986, 22.40313],
      [113.979844, 22.402812],
      [113.9795, 22.402681],
      [113.979156, 22.402812],
      [113.979014, 22.40313],
      [113.979156, 22.403448],
      [113.9795, 22.403579],
      [113.979844, 22.403448],
      [113.979986, 22.40313]
     ]
    ]
   }
  },
  {
   "type": "Feature",
   "properties": {
    "name_zh": "會展",
    "name_en": "Exhibition Centre",
    "source": "generated: mtr exits + rail stops, buffered 50m"
   },
   "geometry": {
    "type": "Polygon",
    "coordinates": [
     [
      [114.174615, 22.28078],
      [114.174254, 22.28089],
      [114.174089, 22.281206],
      [114.174221, 22.281536],
      [114.17458, 22.281888],
      [114.174838, 22.28202],
      [114.175364, 22.282096],
      [114.176298, 22.281999],
      [114.176613, 22.281844],
      [114.176729, 22.281533],
      [114.176719, 22.281334],
      [114.176584, 22.281042],
      [114.176274, 22.280906],
      [114.174615, 22.28078]
     ]
    ]
   }
  },
  {
   "type": "Feature",
   "properties": {
    "name_zh": "朗屏",
    "name_en": "Long Ping",
    "source": "generated: mtr exits + rail stops, buffered 50m"
   },
   "geometry": {
    "type": "Polygon",
    "coordinates": [
     [
      [114.026483, 22.447115],
      [114.023493, 22.447075],
      [114.023173, 22.447189],
      [114.023014, 22.44747],
      [114.023095, 22.447778],
      [114.023376, 22.44796],
      [114.024366, 22.448182],
      [114.026464, 22.448238],
      [114.026824, 22.448105],
      [114.026964, 22.447772],
      [114.026954, 22.447546],
      [114.026811, 22.447244],
      [114.026483, 22.447115]
     ]
    ]
   }
  },
  {
   "type": "Feature",
   "properties": {
    "name_zh": "杏花邨",
    "name_en": "Heng Fa Chuen",
    "source": "generated: rail stops, buffered 50m"
   },
   "geometry": {
    "type": "Polygon",
    "coordinates": [
     [
      [114.240593, 22.276827],
      [114.240686, 22.276488],
      [114.240487, 22.27619],
      [114.240118, 22.276114],
      [114.239622, 22.276198],
      [114.239308, 22.276388],
      [114.239233, 22.276727],
      [114.239322, 22.27714],
      [114.239521, 22.277421],
      [114.239874, 22.277496],
      [114.240186, 22.277324],
      [114.240593, 22.276827]
     ]
    ]
   }
  },
  {
   "type": "Feature",
   "properties": {
    "name_zh": "杯渡",
    "name_en": "Pui To",
    "source": "generated: rail stops, buffered 50m"
   },
   "geometry": {
    "type": "Polygon",
    "coordinates": [
     [
      [113.977286, 22.39461],
      [113.977144, 22.394292],
      [113.9768, 22.394161],
      [113.976456, 22.394292],
      [113.976314, 22.39461],
      [113.976456, 22.394928],
      [113.9768, 22.395059],
      [113.977144, 22.394928],
      [113.977286, 22.39461]
     ]
    ]
   }
  },
  {
   "type": "Feature",
   "properties": {
    "name_zh": "東涌",
    "name_en": "Tung Chung",
    "source": "generated: mtr exits + rail stops, buffered 50m"
   },
   "geometry": {
    "type": "Polygon",
    "coordinates": [
     [
      [113.941406, 22.288564],
      [113.940919, 22.288496],
      [113.940725, 22.288568],
      [113.940483, 22.288763],
      [113.940426, 22.289055],
      [113.940578, 22.289317],
      [113.941392, 22.290004],
      [113.941693, 22.290121],
      [113.942007, 22.290035],
      [113.94219, 22.289785],
      [113.942258, 22.289542],
      [113.942094, 22.28908],
      [113.941406, 22.288564]
     ]
    ]
   }
  },
  {
   "type": "Feature",
   "properties": {
    "name_zh": "柯士甸",
    "name_en": "Austin",
    "source": "generated: mtr exits + rail stops, buffered 50m"
   },
   "geometry": {
    "type": "Polygon",
    "coordinates": [
     [
      [114.167072, 22.302687],
      [114.166734, 22.302805],
      [114.166404, 22.303085],
      [114.16628, 22.303253],
      [114.165452, 22.305227],
      [114.16531, 22.305746],
      [114.165386, 22.306115],
      [114.165739, 22.306301],
      [114.166302, 22.306346],
      [114.166597, 22.306283],
      [114.166793, 22.306071],
      [114.168026, 22.303316],
      [114.167984, 22.302899],
      [114.167586, 22.302696],
      [114.167072, 22.302687]
     ]
    ]
   }
  },
  {
   "type": "Feature",
   "properties": {
    "name_zh": "柴灣",
    "name_en": "Chai Wan",
    "source": "generated: mtr exits + rail stops, buffered 50m"
   },
   "geometry": {
    "type": "Polygon",
    "coordinates": [
     [
      [114.23727, 22.263676],
      [114.236998, 22.263417],
      [114.236607, 22.263426],
      [114.236462, 22.263489],
      [114.236211, 22.263745],
      [114.23623, 22.264089],
      [114.237007, 22.265597],
      [114.237273, 22.265824],
      [114.237635, 22.265817],
      [114.237891, 22.265582],
      [114.237901, 22.265247],
      [114.23727, 22.263676]
     ]
    ]
   }
  },
  {
   "type": "Feature",
   "properties": {
    "name_zh": "樂富",
    "name_en": "Lok Fu",
    "source": "generated: rail stops, buffered 50m"
   },
   "geometry": {
    "type": "Polygon",
    "coordinates": [
     [
      [114.188241, 22.337879],
      [114.188194, 22.337574],
      [114.187947, 22.337369],
      [114.187614, 22.337359],
      [114.186878, 22.337583],
      [114.186587, 22.337827],
      [114.186585, 22.33819],
      [114.186874, 22.338435],
      [114.187513, 22.338636],
      [114.187909, 22.338601],
      [114.188144, 22.338303],
      [114.188241, 22.337879]
     ]
    ]
   }
  },
  {
   "type": "Feature",
   "properties": {
    "name_zh": "樂湖",
    "name_en": "Locwood",
    "source": "generated: rail stops, buffered 50m"
   },
   "geometry": {
    "type": "Polygon",
    "coordinates": [
     [
      [114.001566, 22.45304],
      [114.001424, 22.452722],
      [114.00108, 22.452591],
      [114.000736, 22.452722],
      [114.000594, 22.45304],
      [114.000736, 22.453358],
      [114.00108, 22.453489],
      [114.001424, 22.453358],
      [114.001566, 22.45304]
     ]
    ]
   }
  },
  {
   "type": "Feature",
   "properties": {
    "name_zh": "機場",
    "name_en": "Airport",
    "source": "generated: mtr exits + rail stops, buffered 50m"
   },
   "geometry": {
    "type": "Polygon",
    "coordinates": [
     [
      [113.936772, 22.314523],
      [113.936446, 22.314557],
      [113.936217, 22.314775],
      [113.935597, 22.316357],
      [113.935539, 22.316646],
      [113.935599, 22.31696],
      [113.93587, 22.317157],
      [113.93618, 22.317248],
      [113.936543, 22.317222],
      [113.936785, 22.316969],
      [113.937451, 22.315174],
      [113.937414, 22.314814],
      [113.937102, 22.314596],
      [113.936772, 22.314523]
     ]
    ]
   }
  },
  {
   "type": "Feature",
   "properties": {
    "name_zh": "欣澳",
    "name_en": "Sunny Bay",
    "source": "generated: rail stops, buffered 50m"
   },
   "geometry": {
    "type": "Polygon",
    "coordinates": [
     [
      [114.028814, 22.332507],
      [114.029184, 22.332539],
      [114.02947, 22.332319],
      [114.029504, 22.331977],
      [114.029266, 22.331713],
      [114.028897, 22.331533],
      [114.028527, 22.331501],
      [114.028241, 22.331721],
      [114.028206, 22.332063],
      [114.028444, 22.332327],
      [114.028814, 22.332507]
     ]
    ]
   }
  },
  {
   "type": "Feature",
   "properties": {
    "name_zh": "水邊圍",
    "name_en": "Shui Pin Wai",
    "source": "generated: rail stops, buffered 50m"
   },
   "geometry": {
    "type": "Polygon",
    "coordinates": [
     [
      [114.020936, 22.44446],
      [114.020794, 22.444142],
      [114.02045, 22.444011],
      [114.020106, 22.444142],
      [114.019964, 22.44446],
      [114.020106, 22.444778],
      [114.02045, 22.444909],
      [114.020794, 22.444778],
      [114.020936, 22.44446]
     ]
    ]
   }
  },
  {
   "type": "Feature",
   "properties": {
    "name_zh": "沙田",
    "name_en": "Sha Tin",
    "source": "generated: mtr exits + rail stops, buffered 50m"
   },
   "geometry": {
    "type": "Polygon",
    "coordinates": [
     [
      [114.187, 22.381689],
      [114.186625, 22.381767],
      [114.186428, 22.382072],
      [114.186534, 22.382414],
      [114.187247, 22.383223],
      [114.187563, 22.383384],
      [114.187912, 22.3833],
      [114.188058, 22.383201],
      [114.188242, 22.382737],
      [114.188135, 22.382438],
      [114.187941, 22.382167],
      [114.187648, 22.381882],
      [114.187393, 22.381757],
      [114.187, 22.381689]
     ]
    ]
   }
  },
  {
   "type": "Feature",
   "properties": {
    "name_zh": "沙田圍",
    "name_en": "Sha Tin Wai",
    "source": "generated: mtr exits + rail stops, buffered 50m"
   },
   "geometry": {
    "type": "Polygon",
    "coordinates": [
     [
      [114.19497, 22.376406],
      [114.194594, 22.376318],
      [114.194268, 22.376513],
      [114.194154, 22.376887],
      [114.194334, 22.377169],
      [114.195082, 22.377711],
      [114.195434, 22.377804],
      [114.195804, 22.377589],
      [114.195913, 22.377254],
      [114.195727, 22.376948],
      [114.19497, 22.376406]
     ]
    ]
   }
  },
  {
   "type": "Feature",
   "properties": {
    "name_zh": "河田",
    "name_en": "Ho Tin",
    "source": "generated: rail stops, buffered 50m"
   },
   "geometry": {
    "type": "Polygon",
    "coordinates": [
     [
      [113.973616, 22.39738],
      [113.973474, 22.397062],
      [113.97313, 22.396931],
      [113.972786, 22.397062],
      [113.972644, 22.39738],
      [113.972786, 22.397698],
      [113.97313, 22.397829],
      [113.973474, 22.397698],
      [113.973616, 22.39738]
     ]
    ]
   }
  },
  {
   "type": "Feature",
   "properties": {
    "name_zh": "油塘",
    "name_en": "Yau Tong",
    "source": "generated: mtr exits + rail stops, buffered 50m"
   },
   "geometry": {
    "type": "Polygon",
    "coordinates": [
     [
      [114.237815, 22.296775],
      [114.237456, 22.296716],
      [114.237154, 22.296903],
      [114.236194, 22.298213],
      [114.236119, 22.298551],
      [114.236325, 22.298838],
      [114.236471, 22.298929],
      [114.236833, 22.298997],
      [114.237142, 22.298809],
      [114.238112, 22.297499],
      [114.238187, 22.297154],
      [114.23797, 22.296865],
      [114.237815, 22.296775]
     ]
    ]
   }
  },
  {
   "type": "Feature",
   "properties": {
    "name_zh": "油麻地",
    "name_en": "Yau Ma Tei",
    "source": "generated: mtr exits + rail stops, buffered 50m"
   },
   "geometry": {
    "type": "Polygon",
    "coordinates": [
     [
      [114.171128, 22.31169],
      [114.170889, 22.311394],
      [114.17049, 22.311364],
      [114.170202, 22.31162],
      [114.169678, 22.31283],
      [114.169647, 22.313051],
      [114.169753, 22.313864],
      [114.16988, 22.314116],
      [114.170143, 22.314251],
      [114.170648, 22.314341],
      [114.171016, 22.31427],
      [114.171219, 22.313978],
      [114.171403, 22.313002],
      [114.171399, 22.312828],
      [114.171128, 22.31169]
     ]
    ]
   }
  },
  {
   "type": "Feature",
   "properties": {
    "name_zh": "泥圍",
    "name_en": "Nai Wai",
    "source": "generated: rail stops, buffered 50m"
   },
   "geometry": {
    "type": "Polygon",
    "coordinates": [
     [
      [113.986806, 22.42365],
      [113.986664, 22.423332],
      [113.98632, 22.423201],
      [113.985976, 22.423332],
      [113.985834, 22.42365],
      [113.985976, 22.423968],
      [113.98632, 22.424099],
      [113.986664, 22.423968],
      [113.986806, 22.42365]
     ]
    ]
   }
  },
  {
   "type": "Feature",
   "properties": {
    "name_zh": "洪水橋",
    "name_en": "Hung Shui Kiu",
    "source": "generated: rail stops, buffered 50m"
   },
   "geometry": {
    "type": "Polygon",
    "coordinates": [
     [
      [113.997846, 22.43364],
      [113.997704, 22.433322],
      [113.99736, 22.433191],
      [113.997016, 22.433322],
      [113.996874, 22.43364],
      [113.997016, 22.433958],
      [113.99736, 22.434089],
      [113.997704, 22.433958],
      [113.997846, 22.43364]
     ]
    ]
   }
  },
  {
   "type": "Feature",
   "properties": {
    "name_zh": "海怡半島",
    "name_en": "South Horizons",
    "source": "generated: mtr exits + rail stops, buffered 50m"
   },
   "geometry": {
    "type": "Polygon",
    "coordinates": [
     [
      [114.149497, 22.242796],
      [114.149334, 22.242408],
      [114.148895, 22.24231],
      [114.148081, 22.2425],
      [114.147793, 22.242689],
      [114.14772, 22.243009],
      [114.147901, 22.24329],
      [114.148628, 22.243813],
      [114.148948, 22.243908],
      [114.149258, 22.243787],
      [114.149409, 22.24351],
      [114.149497, 22.242796]
     ]
    ]
   }
  },
  {
   "type": "Feature",
   "properties": {
    "name_zh": "海洋公園",
    "name_en": "Ocean Park",
    "source": "generated: mtr exits + rail stops, buffered 50m"
   },
   "geometry": {
    "type": "Polygon",
    "coordinates": [
     [
      [114.174962, 22.247955],
      [114.174708, 22.247703],
      [114.174336, 22.247692],
      [114.173715, 22.247909],
      [114.173468, 22.248101],
      [114.173406, 22.248394],
      [114.173556, 22.248659],
      [114.174074, 22.249087],
      [114.17462, 22.249384],
      [114.175004, 22.249428],
      [114.175301, 22.249197],
      [114.175321, 22.24884],
      [114.174962, 22.247955]
     ]
    ]
   }
  },
  {
   "type": "Feature",
   "properties": {
    "name_zh": "海皇路(舊屯門泳池)",
    "name_en": "Hoi Wong Road",
    "source": "generated: rail stops, buffered 50m"
   },
   "geometry": {
    "type": "Polygon",
    "coordinates": [
     [
      [113.970896, 22.38116],
      [113.970754, 22.380842],
      [113.97041, 22.380711],
      [113.970066, 22.380842],
      [113.969924, 22.38116],
      [113.970066, 22.381478],
      [113.97041, 22.381609],
      [113.970754, 22.381478],
      [113.970896, 22.38116]
     ]
    ]
   }
  },
  {
   "type": "Feature",
   "properties": {
    "name_zh": "深水埗",
    "name_en": "Sham Shui Po",
    "source": "generated: mtr exits + rail stops, buffered 50m"
   },
   "geometry": {
    "type": "Polygon",
    "coordinates": [
     [
      [114.162817, 22.329699],
      [114.162486, 22.329536],
      [114.162128, 22.329639],
      [114.161255, 22.330316],
      [114.161087, 22.330593],
      [114.161158, 22.330903],
      [114.161392, 22.331232],
      [114.161867, 22.331747],
      [114.162196, 22.331903],
      [114.162548, 22.3318],
      [114.163412, 22.331132],
      [114.163581, 22.330852],
      [114.163505, 22.330539],
      [114.162817, 22.329699]
     ]
    ]
   }
  },
  {
   "type": "Feature",
   "properties": {
    "name_zh": "澤豐",
    "name_en": "Affluence",
    "source": "generated: rail stops, buffered 50m"
   },
   "geometry": {
    "type": "Polygon",
    "coordinates": [
     [
      [113.976376, 22.40349],
      [113.976234, 22.403172],
      [113.97589, 22.403041],
      [113.975546, 22.403172],
      [113.975404, 22.40349],
      [113.975546, 22.403808],
      [113.97589, 22.403939],
      [113.976234, 22.403808],
      [113.976376, 22.40349]
     ]
    ]
   }
  },
  {
   "type": "Feature",
   "properties": {
    "name_zh": "濕地公園",
    "name_en": "Wetland Park",
    "source": "generated: rail stops, buffered 50m"
   },
   "geometry": {
    "type": "Polygon",
    "coordinates": [
     [
      [114.002946, 22.4696],
      [114.002804, 22.469282],
      [114.00246, 22.469151],
      [114.002116, 22.469282],
      [114.001974, 22.4696],
      [114.002116, 22.469918],
      [114.00246, 22.470049],
      [114.002804, 22.469918],
      [114.002946, 22.4696]
     ]
    ]
   }
  },
  {
   "type": "Feature",
   "properties": {
    "name_zh": "灣仔",
    "name_en": "Wan Chai",
    "source": "generated: mtr exits + rail stops, buffered 50m"
   },
   "geometry": {
    "type": "Polygon",
    "coordinates": [
     [
      [114.172691, 22.276015],
      [114.172349, 22.275979],
      [114.172067, 22.276162],
      [114.171987, 22.276473],
      [114.172148, 22.277608],
      [114.172475, 22.278247],
      [114.172921, 22.278489],
      [114.173232, 22.27848],
      [114.173543, 22.278363],
      [114.173698, 22.278089],
      [114.173826, 22.27687],
      [114.173768, 22.276613],
      [114.173565, 22.27643],
      [114.172691, 22.276015]
     ]
    ]
   }
  },
  {
   "type": "Feature",
   "properties": {
    "name_zh": "火炭",
    "name_en": "Fo Tan",
    "source": "generated: mtr exits + rail stops, buffered 50m"
   },
   "geometry": {
    "type": "Polygon",
    "coordinates": [
     [
      [114.198401, 22.394497],
      [114.198112, 22.394298],
      [114.197754, 22.394337],
      [114.197521, 22.394455],
      [114.197284, 22.394732],
      [114.197338, 22.395082],
      [114.197989, 22.396075],
      [114.19822, 22.396258],
      [114.198523, 22.396278],
      [114.198808, 22.396167],
      [114.198945, 22.396063],
      [114.199116, 22.395791],
      [114.199052, 22.395482],
      [114.198401, 22.394497]
     ]
    ]
   }
  },
  {
   "type": "Feature",
   "properties": {
    "name_zh": "炮台山",
    "name_en": "Fortress Hill",
    "source": "generated: rail stops, buffered 50m"
   },
   "geometry": {
    "type": "Polygon",
    "coordinates": [
     [
      [114.193992, 22.287658],
      [114.193714, 22.287476],
      [114.193374, 22.287507],
      [114.193141, 22.287738],
      [114.19313, 22.288053],
      [114.193283, 22.288373],
      [114.193584, 22.288698],
      [114.193902, 22.288853],
      [114.194248, 22.288763],
      [114.194433, 22.288479],
      [114.194355, 22.288154],
      [114.193992, 22.287658]
     ]
    ]
   }
  },
  {
   "type": "Feature",
   "properties": {
    "name_zh": "烏溪沙",
    "name_en": "Wu Kai Sha",
    "source": "generated: mtr exits + rail stops, buffered 50m"
   },
   "geometry": {
    "type": "Polygon",
    "coordinates": [
     [
      [114.244349, 22.429122],
      [114.244268, 22.428798],
      [114.243968, 22.428613],
      [114.243613, 22.428671],
      [114.243399, 22.428939],
      [114.243302, 22.429283],
      [114.243268, 22.429716],
      [114.243384, 22.430031],
      [114.243702, 22.430186],
      [114.244049, 22.430095],
      [114.244233, 22.429809],
      [114.244349, 22.429122]
     ]
    ]
   }
  },
  {
   "type": "Feature",
   "properties": {
    "name_zh": "牛頭角",
    "name_en": "Ngau Tau Kok",
    "source": "generated: mtr exits + rail stops, buffered 50m"
   },
   "geometry": {
    "type": "Polygon",
    "coordinates": [
     [
      [114.218637, 22.314547],
      [114.218315, 22.314545],
      [114.218062, 22.31473],
      [114.21799, 22.31502],
      [114.218097, 22.315905],
      [114.218218, 22.316154],
      [114.218393, 22.316335],
      [114.218861, 22.316474],
      [114.219298, 22.316383],
      [114.219759, 22.316118],
      [114.219939, 22.315883],
      [114.219926, 22.315595],
      [114.219829, 22.31536],
      [114.219677, 22.315168],
      [114.219046, 22.314707],
      [114.218637, 22.314547]
     ]
    ]
   }
  },
  {
   "type": "Feature",
   "properties": {
    "name_zh": "田景",
    "name_en": "Tin King",
    "source": "generated: rail stops, buffered 50m"
   },
   "geometry": {
    "type": "Polygon",
    "coordinates": [
     [
      [113.966916, 22.40771],
      [113.966774, 22.407392],
      [113.96643, 22.407261],
      [113.966086, 22.407392],
      [113.965944, 22.40771],
      [113.966086, 22.408028],
      [113.96643, 22.408159],
      [113.966774, 22.408028],
      [113.966916, 22.40771]
     ]
    ]
   }
  },
  {
   "type": "Feature",
   "properties": {
    "name_zh": "石排",
    "name_en": "Shek Pai",
    "source": "generated: rail stops, buffered 50m"
   },
   "geometry": {
    "type": "Polygon",
    "coordinates": [
     [
      [113.968176, 22.40138],
      [113.968034, 22.401062],
      [113.96769, 22.400931],
      [113.967346, 22.401062],
      [113.967204, 22.40138],
      [113.967346, 22.401698],
      [113.96769, 22.401829],
      [113.968034, 22.401698],
      [113.968176, 22.40138]
     ]
    ]
   }
  },
  {
   "type": "Feature",
   "properties": {
    "name_zh": "石硤尾",
    "name_en": "Shek Kip Mei",
    "source": "generated: mtr exits + rail stops, buffered 50m"
   },
   "geometry": {
    "type": "Polygon",
    "coordinates": [
     [
      [114.169612, 22.331573],
      [114.169566, 22.331261],
      [114.16931, 22.331054],
      [114.16897, 22.331052],
      [114.168387, 22.331251],
      [114.168128, 22.33146],
      [114.168083, 22.331776],
      [114.168355, 22.332841],
      [114.168619, 22.333144],
      [114.169039, 22.333142],
      [114.169301, 22.332838],
      [114.169612, 22.331573]
     ]
    ]
   }
  },
  {
   "type": "Feature",
   "properties": {
    "name_zh": "石門",
    "name_en": "Shek Mun",
    "source": "generated: mtr exits + rail stops, buffered 50m"
   },
   "geometry": {
    "type": "Polygon",
    "coordinates": [
     [
      [114.208482, 22.387085],
      [114.208133, 22.386939],
      [114.207779, 22.387072],
      [114.207701, 22.387144],
      [114.20756, 22.387457],
      [114.207696, 22.387772],
      [114.208278, 22.388332],
      [114.208643, 22.388469],
      [114.208998, 22.388311],
      [114.209172, 22.387949],
      [114.209045, 22.387654],
      [114.208482, 22.387085]
     ]
    ]
   }
  },
  {
   "type": "Feature",
   "properties": {
    "name_zh": "第一城",
    "name_en": "City One",
    "source": "generated: mtr exits + rail stops, buffered 50m"
   },
   "geometry": {
    "type": "Polygon",
    "coordinates": [
     [
      [114.203502, 22.38213],
      [114.203139, 22.381991],
      [114.202784, 22.382146],
      [114.202716, 22.382218],
      [114.202597, 22.382524],
      [114.202733, 22.382825],
      [114.203394, 22.383457],
      [114.203705, 22.383592],
      [114.204113, 22.383449],
      [114.204305, 22.383127],
      [114.204172, 22.382781],
      [114.203502, 22.38213]
     ]
    ]
   }
  },
  {
   "type": "Feature",
   "properties": {
    "name_zh": "筲箕灣",
    "name_en": "Shau Kei Wan",
    "source": "generated: mtr exits + rail stops, buffered 50m"
   },
   "geometry": {
    "type": "Polygon",
    "coordinates": [
     [
      [114.228287, 22.278226],
      [114.227917, 22.27834],
      [114.227757, 22.278668],
      [114.227748, 22.279526],
      [114.227982, 22.279915],
      [114.229564, 22.2808],
      [114.229882, 22.28086],
      [114.23017, 22.280723],
      [114.2303, 22.280448],
      [114.230346, 22.279748],
      [114.23022, 22.278772],
      [114.23008, 22.278508],
      [114.229794, 22.27838],
      [114.228287, 22.278226]
     ]
    ]
   }
  },
  {
   "type": "Feature",
   "properties": {
    "name_zh": "粉嶺",
    "name_en": "Fanling",
    "source": "generated: mtr exits + rail stops, buffered 50m"
   },
   "geometry": {
    "type": "Polygon",
    "coordinates": [
     [
      [114.138854, 22.491369],
      [114.138571, 22.491419],
      [114.138369, 22.491607],
      [114.137931, 22.492384],
      [114.137889, 22.492693],
      [114.138074, 22.492953],
      [114.138397, 22.493039],
      [114.138704, 22.492911],
      [114.139512, 22.49215],
      [114.139635, 22.491851],
      [114.139511, 22.491551],
      [114.139203, 22.491405],
      [114.138854, 22.491369]
     ]
    ]
   }
  },
  {
   "type": "Feature",
   "properties": {
    "name_zh": "紅磡",
    "name_en": "Hung Hom",
    "source": "generated: mtr exits + rail stops, buffered 50m"
   },
   "geometry": {
    "type": "Polygon",
    "coordinates": [
     [
      [114.181031, 22.300301],
      [114.180622, 22.300404],
      [114.180455, 22.300764],
      [114.180525, 22.302098],
      [114.180681, 22.303507],
      [114.181031, 22.304286],
      [114.181477, 22.304551],
      [114.183147, 22.304542],
      [114.183444, 22.304446],
      [114.183615, 22.304202],
      [114.183588, 22.303912],
      [114.182517, 22.301682],
      [114.181471, 22.300485],
      [114.181186, 22.300329],
      [114.181031, 22.300301]
     ]
    ]
   }
  },
  {
   "type": "Feature",
   "properties": {
    "name_zh": "羅湖",
    "name_en": "Lo Wu",
    "source": "generated: rail stops, buffered 50m"
   },
   "geometry": {
    "type": "Polygon",
    "coordinates": [
     [
      [114.113716, 22.52764],
      [114.113574, 22.527322],
      [114.11323, 22.527191],
      [114.112886, 22.527322],
      [114.112744, 22.52764],
      [114.112886, 22.527958],
      [114.11323, 22.528089],
      [114.113574, 22.527958],
      [114.113716, 22.52764]
     ]
    ]
   }
  },
  {
   "type": "Feature",
   "properties": {
    "name_zh": "美孚",
    "name_en": "Mei Foo",
    "source": "generated: mtr exits + rail stops, buffered 50m"
   },
   "geometry": {
    "type": "Polygon",
    "coordinates": [
     [
      [114.140705, 22.336826],
      [114.140696, 22.336496],
      [114.140445, 22.33626],
      [114.140088, 22.336248],
      [114.136228, 22.337506],
      [114.135989, 22.337677],
      [114.135904, 22.337945],
      [114.135967, 22.339684],
      [114.136092, 22.33997],
      [114.136387, 22.340114],
      [114.136713, 22.340048],
      [114.140111, 22.338053],
      [114.140307, 22.337829],
      [114.140705, 22.336826]
     ]
    ]
   }
  },
  {
   "type": "Feature",
   "properties": {
    "name_zh": "美樂",
    "name_en": "Melody Garden",
    "source": "generated: rail stops, buffered 50m"
   },
   "geometry": {
    "type": "Polygon",
    "coordinates": [
     [
      [113.961596, 22.37505],
      [113.961454, 22.374732],
      [113.96111, 22.374601],
      [113.960766, 22.374732],
      [113.960624, 22.37505],
      [113.960766, 22.375368],
      [113.96111, 22.375499],
      [113.961454, 22.375368],
      [113.961596, 22.37505]
     ]
    ]
   }
  },
  {
   "type": "Feature",
   "properties": {
    "name_zh": "翠湖",
    "name_en": "Chestwood",
    "source": "generated: rail stops, buffered 50m"
   },
   "geometry": {
    "type": "Polygon",
    "coordinates": [
     [
      [114.000016, 22.45972],
      [113.999874, 22.459402],
      [113.99953, 22.459271],
      [113.999186, 22.459402],
      [113.999044, 22.45972],
      [113.999186, 22.460038],
      [113.99953, 22.460169],
      [113.999874, 22.460038],
      [114.000016, 22.45972]
     ]
    ]
   }
  },
  {
   "type": "Feature",
   "properties": {
    "name_zh": "良景",
    "name_en": "Leung King",
    "source": "generated: rail stops, buffered 50m"
   },
   "geometry": {
    "type": "Polygon",
    "coordinates": [
     [
      [113.964116, 22.40669],
      [113.963974, 22.406372],
      [113.96363, 22.406241],
      [113.963286, 22.406372],
      [113.963144, 22.40669],
      [113.963286, 22.407008],
      [113.96363, 22.407139],
      [113.963974, 22.407008],
      [113.964116, 22.40669]
     ]
    ]
   }
  },
  {
   "type": "Feature",
   "properties": {
    "name_zh": "茘景",
    "name_en": "Lai King",
    "source": "generated: rail stops, buffered 50m"
   },
   "geometry": {
    "type": "Polygon",
    "coordinates": [
     [
      [114.126676, 22.34834],
      [114.126534, 22.348022],
      [114.12619, 22.347891],
      [114.125846, 22.348022],
      [114.125704, 22.34834],
      [114.125846, 22.348658],
      [114.12619, 22.348789],
      [114.126534, 22.348658],
      [114.126676, 22.34834]
     ]
    ]
   }
  },
  {
   "type": "Feature",
   "properties": {
    "name_zh": "茘枝角",
    "name_en": "Lai Chi Kok",
    "source": "generated: rail stops, buffered 50m"
   },
   "geometry": {
    "type": "Polygon",
    "coordinates": [
     [
      [114.148446, 22.33725],
      [114.148304, 22.336932],
      [114.14796, 22.336801],
      [114.147616, 22.336932],
      [114.147474, 22.33725],
      [114.147616, 22.337568],
      [114.14796, 22.337699],
      [114.148304, 22.337568],
      [114.148446, 22.33725]
     ]
    ]
   }
  },
  {
   "type": "Feature",
   "properties": {
    "name_zh": "荃灣",
    "name_en": "Tsuen Wan",
    "source": "generated: mtr exits + rail stops, buffered 50m"
   },
   "geometry": {
    "type": "Polygon",
    "coordinates": [
     [
      [114.118983, 22.372832],
      [114.118709, 22.372592],
      [114.118332, 22.372606],
      [114.115883, 22.373681],
      [114.115621, 22.373973],
      [114.115694, 22.374346],
      [114.11605, 22.374534],
      [114.116506, 22.374571],
      [114.116722, 22.374542],
      [114.118703, 22.373839],
      [114.11899, 22.373561],
      [114.119077, 22.373317],
      [114.119061, 22.372994],
      [114.118983, 22.372832]
     ]
    ]
   }
  },
  {
   "type": "Feature",
   "properties": {
    "name_zh": "荃灣西",
    "name_en": "Tsuen Wan West",
    "source": "generated: mtr exits + rail stops, buffered 50m"
   },
   "geometry": {
    "type": "Polygon",
    "coordinates": [
     [
      [114.111384, 22.367199],
      [114.111291, 22.366901],
      [114.11101, 22.36673],
      [114.110677, 22.366768],
      [114.109939, 22.36712],
      [114.108553, 22.368155],
      [114.108381, 22.368432],
      [114.108451, 22.368744],
      [114.108727, 22.368935],
      [114.109863, 22.369234],
      [114.110355, 22.369104],
      [114.1112, 22.368247],
      [114.111326, 22.367975],
      [114.111384, 22.367199]
     ]
    ]
   }
  },
  {
   "type": "Feature",
   "properties": {
    "name_zh": "落馬洲",
    "name_en": "Lok Ma Chau",
    "source": "generated: rail stops, buffered 50m"
   },
   "geometry": {
    "type": "Polygon",
    "coordinates": [
     [
      [114.066176, 22.51447],
      [114.066034, 22.514152],
      [114.06569, 22.514021],
      [114.065346, 22.514152],
      [114.065204, 22.51447],
      [114.065346, 22.514788],
      [114.06569, 22.514919],
      [114.066034, 22.514788],
      [114.066176, 22.51447]
     ]
    ]
   }
  },
  {
   "type": "Feature",
   "properties": {
    "name_zh": "葵興",
    "name_en": "Kwai Hing",
    "source": "generated: mtr exits + rail stops, buffered 50m"
   },
   "geometry": {
    "type": "Polygon",
    "coordinates": [
     [
      [114.131266, 22.362184],
      [114.130812, 22.362241],
      [114.130611, 22.362621],
      [114.13065, 22.363614],
      [114.13079, 22.363915],
      [114.130936, 22.36405],
      [114.13128, 22.364183],
      [114.131624, 22.364052],
      [114.131767, 22.363734],
      [114.131767, 22.362668],
      [114.13168, 22.362412],
      [114.13145, 22.362247],
      [114.131266, 22.362184]
     ]
    ]
   }
  },
  {
   "type": "Feature",
   "properties": {
    "name_zh": "葵芳",
    "name_en": "Kwai Fong",
    "source": "generated: mtr exits + rail stops, buffered 50m"
   },
   "geometry": {
    "type": "Polygon",
    "coordinates": [
     [
      [114.127864, 22.356013],
      [114.127548, 22.35583],
      [114.127184, 22.355909],
      [114.127048, 22.355999],
      [114.126853, 22.356286],
      [114.126931, 22.356618],
      [114.127669, 22.357611],
      [114.127981, 22.357799],
      [114.128345, 22.357727],
      [114.128501, 22.357627],
      [114.128703, 22.357336],
      [114.128621, 22.356998],
      [114.127864, 22.356013]
     ]
    ]
   }
  },
  {
   "type": "Feature",
   "properties": {
    "name_zh": "蔡意橋",
    "name_en": "Choy Yee Bridge",
    "source": "generated: rail stops, buffered 50m"
   },
   "geometry": {
    "type": "Polygon",
    "coordinates": [
     [
      [113.974656, 22.39993],
      [113.974514, 22.399612],
      [113.97417, 22.399481],
      [113.973826, 22.399612],
      [113.973684, 22.39993],
      [113.973826, 22.400248],
      [113.97417, 22.400379],
      [113.974514, 22.400248],
      [113.974656, 22.39993]
     ]
    ]
   }
  },
  {
   "type": "Feature",
   "properties": {
    "name_zh": "藍地",
    "name_en": "Lam Tei",
    "source": "generated: rail stops, buffered 50m"
   },
   "geometry": {
    "type": "Polygon",
    "coordinates": [
     [
      [113.982116, 22.4185],
      [113.981974, 22.418182],
      [113.98163, 22.418051],
      [113.981286, 22.418182],
      [113.981144, 22.4185],
      [113.981286, 22.418818],
      [113.98163, 22.418949],
      [113.981974, 22.418818],
      [113.982116, 22.4185]
     ]
    ]
   }
  },
  {
   "type": "Feature",
   "properties": {
    "name_zh": "藍田",
    "name_en": "Lam Tin",
    "source": "generated: mtr exits + rail stops, buffered 50m"
   },
   "geometry": {
    "type": "Polygon",
    "coordinates": [
     [
      [114.234083, 22.305881],
      [114.233787, 22.305594],
      [114.23336, 22.305636],
      [114.231555, 22.306694],
      [114.23133, 22.307046],
      [114.231508, 22.307421],
      [114.231852, 22.307648],
      [114.234124, 22.308415],
      [114.234476, 22.308408],
      [114.23473, 22.308184],
      [114.234754, 22.307859],
      [114.234083, 22.305881]
     ]
    ]
   }
  },
  {
   "type": "Feature",
   "properties": {
    "name_zh": "蝴蝶",
    "name_en": "Butterfly",
    "source": "generated: rail stops, buffered 50m"
   },
   "geometry": {
    "type": "Polygon",
    "coordinates": [
     [
      [113.962146, 22.37817],
      [113.962004, 22.377852],
      [113.96166, 22.377721],
      [113.961316, 22.377852],
      [113.961174, 22.37817],
      [113.961316, 22.378488],
      [113.96166, 22.378619],
      [113.962004, 22.378488],
      [113.962146, 22.37817]
     ]
    ]
   }
  },
  {
   "type": "Feature",
   "properties": {
    "name_zh": "西灣河",
    "name_en": "Sai Wan Ho",
    "source": "generated: rail stops, buffered 50m"
   },
   "geometry": {
    "type": "Polygon",
    "coordinates": [
     [
      [114.222557, 22.281687],
      [114.222269, 22.281537],
      [114.221943, 22.281592],
      [114.221574, 22.281793],
      [114.221345, 22.282086],
      [114.221424, 22.28244],
      [114.221761, 22.282626],
      [114.222382, 22.282697],
      [114.222747, 22.2826],
      [114.222925, 22.282291],
      [114.22281, 22.281958],
      [114.222557, 22.281687]
     ]
    ]
   }
  },
  {
   "type": "Feature",
   "properties": {
    "name_zh": "西營盤",
    "name_en": "Sai Ying Pun",
    "source": "generated: mtr exits + rail stops, buffered 50m"
   },
   "geometry": {
    "type": "Polygon",
    "coordinates": [
     [
      [114.143801, 22.284393],
      [114.143586, 22.284165],
      [114.143264, 22.284114],
      [114.14298, 22.284264],
      [114.141407, 22.285962],
      [114.141299, 22.28617],
      [114.141027, 22.287498],
      [114.141121, 22.287858],
      [114.141476, 22.28803],
      [114.144193, 22.288175],
      [114.144495, 22.288097],
      [114.144683, 22.287866],
      [114.144897, 22.287261],
      [114.144887, 22.286958],
      [114.143801, 22.284393]
     ]
    ]
   }
  },
  {
   "type": "Feature",
   "properties": {
    "name_zh": "觀塘",
    "name_en": "Kwun Tong",
    "source": "generated: mtr exits + rail stops, buffered 50m"
   },
   "geometry": {
    "type": "Polygon",
    "coordinates": [
     [
      [114.227689, 22.311206],
      [114.227259, 22.311006],
      [114.226124, 22.31106],
      [114.225723, 22.311292],
      [114.22519, 22.312186],
      [114.225174, 22.31259],
      [114.225349, 22.312943],
      [114.225543, 22.313142],
      [114.225826, 22.313203],
      [114.226088, 22.313185],
      [114.227054, 22.312857],
      [114.227239, 22.312739],
      [114.227879, 22.312079],
      [114.228002, 22.311812],
      [114.227922, 22.311531],
      [114.227689, 22.311206]
     ]
    ]
   }
  },
  {
   "type": "Feature",
   "properties": {
    "name_zh": "調景嶺",
    "name_en": "Tiu Keng Leng",
    "source": "generated: mtr exits + rail stops, buffered 50m"
   },
   "geometry": {
    "type": "Polygon",
    "coordinates": [
     [
      [114.252526, 22.303687],
      [114.252196, 22.303659],
      [114.251924, 22.303833],
      [114.251836, 22.304128],
      [114.251972, 22.304407],
      [114.25237, 22.304786],
      [114.252724, 22.304922],
      [114.253074, 22.304779],
      [114.25322, 22.304634],
      [114.253341, 22.304242],
      [114.253069, 22.303921],
      [114.252526, 22.303687]
     ]
    ]
   }
  },
  {
   "type": "Feature",
   "properties": {
    "name_zh": "豐年路",
    "name_en": "Fung Nin Road",
    "source": "generated: rail stops, buffered 50m"
   },
   "geometry": {
    "type": "Polygon",
    "coordinates": [
     [
      [114.024386, 22.44447],
      [114.024244, 22.444152],
      [114.0239, 22.444021],
      [114.023556, 22.444152],
      [114.023414, 22.44447],
      [114.023556, 22.444788],
      [114.0239, 22.444919],
      [114.024244, 22.444788],
      [114.024386, 22.44447]
     ]
    ]
   }
  },
  {
   "type": "Feature",
   "properties": {
    "name_zh": "豐景園",
    "name_en": "Goodview Garden",
    "source": "generated: rail stops, buffered 50m"
   },
   "geometry": {
    "type": "Polygon",
    "coordinates": [
     [
      [113.973476, 22.38327],
      [113.973334, 22.382952],
      [113.97299, 22.382821],
      [113.972646, 22.382952],
      [113.972504, 22.38327],
      [113.972646, 22.383588],
      [113.97299, 22.383719],
      [113.973334, 22.383588],
      [113.973476, 22.38327]
     ]
    ]
   }
  },
  {
   "type": "Feature",
   "properties": {
    "name_zh": "車公廟",
    "name_en": "Che Kung Temple",
    "source": "generated: mtr exits + rail stops, buffered 50m"
   },
   "geometry": {
    "type": "Polygon",
    "coordinates": [
     [
      [114.186469, 22.374206],
      [114.185733, 22.374209],
      [114.1854, 22.374355],
      [114.185273, 22.374676],
      [114.185283, 22.374902],
      [114.185441, 22.375215],
      [114.185792, 22.375332],
      [114.186969, 22.375278],
      [114.187272, 22.37516],
      [114.187425, 22.374891],
      [114.187357, 22.374594],
      [114.1871, 22.374404],
      [114.186469, 22.374206]
     ]
    ]
   }
  },
  {
   "type": "Feature",
   "properties": {
    "name_zh": "輕鐵車廠",
    "name_en": "Light Rail Depot",
    "source": "generated: rail stops, buffered 50m"
   },
   "geometry": {
    "type": "Polygon",
    "coordinates": [
     [
      [113.963906, 22.38181],
      [113.963764, 22.381492],
      [113.96342, 22.381361],
      [113.963076, 22.381492],
      [113.962934, 22.38181],
      [113.963076, 22.382128],
      [113.96342, 22.382259],
      [113.963764, 22.382128],
      [113.963906, 22.38181]
     ]
    ]
   }
  },
  {
   "type": "Feature",
   "properties": {
    "name_zh": "迪士尼",
    "name_en": "Disneyland Resort",
    "source": "generated: rail stops, buffered 50m"
   },
   "geometry": {
    "type": "Polygon",
    "coordinates": [
     [
      [114.044604, 22.315102],
      [114.04438, 22.315377],
      [114.044431, 22.315717],
      [114.044727, 22.315925],
      [114.045096, 22.315878],
      [114.045628, 22.315589],
      [114.045852, 22.315315],
      [114.045801, 22.314975],
      [114.045505, 22.314767],
      [114.045136, 22.314814],
      [114.044604, 22.315102]
     ]
    ]
   }
  },
  {
   "type": "Feature",
   "properties": {
    "name_zh": "金鐘",
    "name_en": "Admiralty",
    "source": "generated: mtr exits + rail stops, buffered 50m"
   },
   "geometry": {
    "type": "Polygon",
    "coordinates": [
     [
      [114.16479, 22.278079],
      [114.164386, 22.278245],
      [114.163639, 22.279103],
      [114.163532, 22.279396],
      [114.163655, 22.279684],
      [114.163951, 22.27983],
      [114.165009, 22.279965],
      [114.165338, 22.279899],
      [114.166327, 22.279312],
      [114.166551, 22.278945],
      [114.16656, 22.278602],
      [114.166431, 22.278285],
      [114.1661, 22.278142],
      [114.16479, 22.278079]
     ]
    ]
   }
  },
  {
   "type": "Feature",
   "properties": {
    "name_zh": "銀圍",
    "name_en": "Ngan Wai",
    "source": "generated: rail stops, buffered 50m"
   },
   "geometry": {
    "type": "Polygon",
    "coordinates": [
     [
      [113.975326, 22.40239],
      [113.975184, 22.402072],
      [113.97484, 22.401941],
      [113.974496, 22.402072],
      [113.974354, 22.40239],
      [113.974496, 22.402708],
      [113.97484, 22.402839],
      [113.975184, 22.402708],
      [113.975326, 22.40239]
     ]
    ]
   }
  },
  {
   "type": "Feature",
   "properties": {
    "name_zh": "銀座",
    "name_en": "Ginza",
    "source": "generated: rail stops, buffered 50m"
   },
   "geometry": {
    "type": "Polygon",
    "coordinates": [
     [
      [114.005376, 22.45756],
      [114.005234, 22.457242],
      [114.00489, 22.457111],
      [114.004546, 22.457242],
      [114.004404, 22.45756],
      [114.004546, 22.457878],
      [114.00489, 22.458009],
      [114.005234, 22.457878],
      [114.005376, 22.45756]
     ]
    ]
   }
  },
  {
   "type": "Feature",
   "properties": {
    "name_zh": "銅鑼灣",
    "name_en": "Causeway Bay",
    "source": "generated: mtr exits + rail stops, buffered 50m"
   },
   "geometry": {
    "type": "Polygon",
    "coordinates": [
     [
      [114.182798, 22.278189],
      [114.182438, 22.2781],
      [114.182116, 22.278273],
      [114.182021, 22.278605],
      [114.182302, 22.280538],
      [114.182451, 22.280805],
      [114.182748, 22.280926],
      [114.184223, 22.281025],
      [114.185181, 22.280812],
      [114.185462, 22.280622],
      [114.185534, 22.280307],
      [114.185358, 22.280028],
      [114.182798, 22.278189]
     ]
    ]
   }
  },
  {
   "type": "Feature",
   "properties": {
    "name_zh": "錦上路",
    "name_en": "Kam Sheung Road",
    "source": "generated: mtr exits + rail stops, buffered 50m"
   },
   "geometry": {
    "type": "Polygon",
    "coordinates": [
     [
      [114.063997, 22.433793],
      [114.063626, 22.433726],
      [114.063316, 22.433925],
      [114.06247, 22.435162],
      [114.062411, 22.435518],
      [114.062653, 22.435799],
      [114.062837, 22.435889],
      [114.063184, 22.435928],
      [114.063469, 22.435742],
      [114.064335, 22.434541],
      [114.064407, 22.434205],
      [114.064201, 22.433919],
      [114.063997, 22.433793]
     ]
    ]
   }
  },
  {
   "type": "Feature",
   "properties": {
    "name_zh": "鍾屋村",
    "name_en": "Chung Uk Tsuen",
    "source": "generated: rail stops, buffered 50m"
   },
   "geometry": {
    "type": "Polygon",
    "coordinates": [
     [
      [113.992716, 22.42966],
      [113.992574, 22.429342],
      [113.99223, 22.429211],
      [113.991886, 22.429342],
      [113.991744, 22.42966],
      [113.991886, 22.429978],
      [113.99223, 22.430109],
      [113.992574, 22.429978],
      [113.992716, 22.42966]
     ]
    ]
   }
  },
  {
   "type": "Feature",
   "properties": {
    "name_zh": "鑽石山",
    "name_en": "Diamond Hill",
    "source": "generated: mtr exits + rail stops, buffered 50m"
   },
   "geometry": {
    "type": "Polygon",
    "coordinates": [
     [
      [114.202495, 22.339186],
      [114.20223, 22.33894],
      [114.201854, 22.338943],
      [114.200146, 22.33962],
      [114.199881, 22.33988],
      [114.199904, 22.340236],
      [114.200438, 22.341211],
      [114.200722, 22.341436],
      [114.201094, 22.341408],
      [114.202666, 22.340658],
      [114.202899, 22.340414],
      [114.202894, 22.340089],
      [114.202495, 22.339186]
     ]
    ]
   }
  },
  {
   "type": "Feature",
   "properties": {
    "name_zh": "長沙灣",
    "name_en": "Cheung Sha Wan",
    "source": "generated: mtr exits + rail stops, buffered 50m"
   },
   "geometry": {
    "type": "Polygon",
    "coordinates": [
     [
      [114.157586, 22.334016],
      [114.157256, 22.333861],
      [114.156903, 22.333966],
      [114.155068, 22.335411],
      [114.154923, 22.335607],
      [114.154652, 22.336339],
      [114.154683, 22.336697],
      [114.154989, 22.336919],
      [114.155374, 22.336862],
      [114.158034, 22.335282],
      [114.158252, 22.33497],
      [114.15814, 22.334612],
      [114.157586, 22.334016]
     ]
    ]
   }
  },
  {
   "type": "Feature",
   "properties": {
    "name_zh": "青山村",
    "name_en": "Tsing Shan Tsuen",
    "source": "generated: rail stops, buffered 50m"
   },
   "geometry": {
    "type": "Polygon",
    "coordinates": [
     [
      [113.967446, 22.3904],
      [113.967304, 22.390082],
      [113.96696, 22.389951],
      [113.966616, 22.390082],
      [113.966474, 22.3904],
      [113.966616, 22.390718],
      [113.96696, 22.390849],
      [113.967304, 22.390718],
      [113.967446, 22.3904]
     ]
    ]
   }
  },
  {
   "type": "Feature",
   "properties": {
    "name_zh": "青松",
    "name_en": "Ching Chung",
    "source": "generated: rail stops, buffered 50m"
   },
   "geometry": {
    "type": "Polygon",
    "coordinates": [
     [
      [113.973006, 22.40729],
      [113.972864, 22.406972],
      [113.97252, 22.406841],
      [113.972176, 22.406972],
      [113.972034, 22.40729],
      [113.972176, 22.407608],
      [113.97252, 22.407739],
      [113.972864, 22.407608],
      [113.973006, 22.40729]
     ]
    ]
   }
  },
  {
   "type": "Feature",
   "properties": {
    "name_zh": "青衣",
    "name_en": "Tsing Yi",
    "source": "generated: mtr exits + rail stops, buffered 50m"
   },
   "geometry": {
    "type": "Polygon",
    "coordinates": [
     [
      [114.107389, 22.357353],
      [114.107048, 22.357274],
      [114.106739, 22.357428],
      [114.106623, 22.357735],
      [114.10668, 22.359271],
      [114.10681, 22.359561],
      [114.107113, 22.359702],
      [114.107442, 22.359624],
      [114.108006, 22.359263],
      [114.108214, 22.358865],
      [114.108131, 22.358272],
      [114.107801, 22.357685],
      [114.107651, 22.357525],
      [114.107389, 22.357353]
     ]
    ]
   }
  },
  {
   "type": "Feature",
   "properties": {
    "name_zh": "青雲",
    "name_en": "Tsing Wun",
    "source": "generated: rail stops, buffered 50m"
   },
   "geometry": {
    "type": "Polygon",
    "coordinates": [
     [
      [113.967886, 22.39434],
      [113.967744, 22.394022],
      [113.9674, 22.393891],
      [113.967056, 22.394022],
      [113.966914, 22.39434],
      [113.967056, 22.394658],
      [113.9674, 22.394789],
      [113.967744, 22.394658],
      [113.967886, 22.39434]
     ]
    ]
   }
  },
  {
   "type": "Feature",
   "properties": {
    "name_zh": "頌富",
    "name_en": "Chung Fu",
    "source": "generated: rail stops, buffered 50m"
   },
   "geometry": {
    "type": "Polygon",
    "coordinates": [
     [
      [113.997446, 22.46203],
      [113.997304, 22.461712],
      [113.99696, 22.461581],
      [113.996616, 22.461712],
      [113.996474, 22.46203],
      [113.996616, 22.462348],
      [113.99696, 22.462479],
      [113.997304, 22.462348],
      [113.997446, 22.46203]
     ]
    ]
   }
  },
  {
   "type": "Feature",
   "properties": {
    "name_zh": "顯徑",
    "name_en": "Hin Keng",
    "source": "generated: rail stops, buffered 50m"
   },
   "geometry": {
    "type": "Polygon",
    "coordinates": [
     [
      [114.170589, 22.363293],
      [114.170307, 22.363516],
      [114.170278, 22.363859],
      [114.17052, 22.36412],
      [114.170891, 22.364147],
      [114.171064, 22.364095],
      [114.171346, 22.363871],
      [114.171375, 22.363529],
      [114.171133, 22.363267],
      [114.170762, 22.363241],
      [114.170589, 22.363293]
     ]
    ]
   }
  },
  {
   "type": "Feature",
   "properties": {
    "name_zh": "香港",
    "name_en": "Hong Kong",
    "source": "generated: mtr exits + rail stops, buffered 50m"
   },
   "geometry": {
    "type": "Polygon",
    "coordinates": [
     [
      [114.157375, 22.282767],
      [114.157041, 22.282719],
      [114.156754, 22.282884],
      [114.156652, 22.283182],
      [114.156759, 22.285097],
      [114.15688, 22.285371],
      [114.15716, 22.285516],
      [114.158393, 22.285715],
      [114.158709, 22.285667],
      [114.158924, 22.285447],
      [114.159448, 22.2843],
      [114.15946, 22.28398],
      [114.159238, 22.283734],
      [114.157375, 22.282767]
     ]
    ]
   }
  },
  {
   "type": "Feature",
   "properties": {
    "name_zh": "香港大學",
    "name_en": "HKU",
    "source": "generated: mtr exits + rail stops, buffered 50m"
   },
   "geometry": {
    "type": "Polygon",
    "coordinates": [
     [
      [114.137177, 22.283446],
      [114.137057, 22.283175],
      [114.136782, 22.28303],
      [114.136469, 22.283072],
      [114.134334, 22.284092],
      [114.132331, 22.285497],
      [114.132141, 22.285822],
      [114.132278, 22.286168],
      [114.132649, 22.286303],
      [114.136851, 22.286114],
      [114.137189, 22.285966],
      [114.137312, 22.28564],
      [114.137177, 22.283446]
     ]
    ]
   }
  },
  {
   "type": "Feature",
   "properties": {
    "name_zh": "馬鞍山",
    "name_en": "Ma On Shan",
    "source": "generated: mtr exits + rail stops, buffered 50m"
   },
   "geometry": {
    "type": "Polygon",
    "coordinates": [
     [
      [114.231787, 22.424308],
      [114.23147, 22.424264],
      [114.231192, 22.424411],
      [114.230872, 22.424755],
      [114.230771, 22.425167],
      [114.231085, 22.425474],
      [114.231523, 22.425609],
      [114.232016, 22.425505],
      [114.232319, 22.425231],
      [114.232461, 22.424846],
      [114.232207, 22.424513],
      [114.231787, 22.424308]
     ]
    ]
   }
  },
  {
   "type": "Feature",
   "properties": {
    "name_zh": "鰂魚涌",
    "name_en": "Quarry Bay",
    "source": "generated: mtr exits + rail stops, buffered 50m"
   },
   "geometry": {
    "type": "Polygon",
    "coordinates": [
     [
      [114.210346, 22.287546],
      [114.210029, 22.287333],
      [114.209646, 22.287404],
      [114.20842, 22.288203],
      [114.208243, 22.288417],
      [114.207461, 22.290419],
      [114.207501, 22.290803],
      [114.20785, 22.291016],
      [114.208248, 22.2909],
      [114.210693, 22.288796],
      [114.210843, 22.288533],
      [114.210782, 22.288241],
      [114.210346, 22.287546]
     ]
    ]
   }
  },
  {
   "type": "Feature",
   "properties": {
    "name_zh": "鳳地",
    "name_en": "Fung Tei",
    "source": "generated: rail stops, buffered 50m"
   },
   "geometry": {
    "type": "Polygon",
    "coordinates": [
     [
      [113.979226, 22.40674],
      [113.979084, 22.406422],
      [113.97874, 22.406291],
      [113.978396, 22.406422],
      [113.978254, 22.40674],
      [113.978396, 22.407058],
      [113.97874, 22.407189],
      [113.979084, 22.407058],
      [113.979226, 22.40674]
     ]
    ]
   }
  },
  {
   "type": "Feature",
   "properties": {
    "name_zh": "鳴琴",
    "name_en": "Ming Kum",
    "source": "generated: rail stops, buffered 50m"
   },
   "geometry": {
    "type": "Polygon",
    "coordinates": [
     [
      [113.967826, 22.39706],
      [113.967684, 22.396742],
      [113.96734, 22.396611],
      [113.966996, 22.396742],
      [113.966854, 22.39706],
      [113.966996, 22.397378],
      [113.96734, 22.397509],
      [113.967684, 22.397378],
      [113.967826, 22.39706]
     ]
    ]
   }
  },
  {
   "type": "Feature",
   "properties": {
    "name_zh": "麒麟",
    "name_en": "Kei Lun",
    "source": "generated: rail stops, buffered 50m"
   },
   "geometry": {
    "type": "Polygon",
    "coordinates": [
     [
      [113.976826, 22.41097],
      [113.976684, 22.410652],
      [113.97634, 22.410521],
      [113.975996, 22.410652],
      [113.975854, 22.41097],
      [113.975996, 22.411288],
      [113.97634, 22.411419],
      [113.976684, 22.411288],
      [113.976826, 22.41097]
     ]
    ]
   }
  },
  {
   "type": "Feature",
   "properties": {
    "name_zh": "黃埔",
    "name_en": "Whampoa",
    "source": "generated: mtr exits + rail stops, buffered 50m"
   },
   "geometry": {
    "type": "Polygon",
    "coordinates": [
     [
      [114.191165, 22.30439],
      [114.191324, 22.304023],
      [114.191107, 22.303682],
      [114.190683, 22.303631],
      [114.189538, 22.303993],
      [114.188112, 22.304868],
      [114.18791, 22.305142],
      [114.187967, 22.305469],
      [114.188326, 22.306029],
      [114.18867, 22.306244],
      [114.189068, 22.306134],
      [114.191165, 22.30439]
     ]
    ]
   }
  },
  {
   "type": "Feature",
   "properties": {
    "name_zh": "黃大仙",
    "name_en": "Wong Tai Sin",
    "source": "generated: mtr exits + rail stops, buffered 50m"
   },
   "geometry": {
    "type": "Polygon",
    "coordinates": [
     [
      [114.194998, 22.340932],
      [114.194617, 22.340815],
      [114.193132, 22.34096],
      [114.192887, 22.34105],
      [114.192683, 22.341195],
      [114.192521, 22.341401],
      [114.192424, 22.341654],
      [114.19251, 22.342093],
      [114.192724, 22.342328],
      [114.193148, 22.342486],
      [114.194691, 22.342332],
      [114.19496, 22.342222],
      [114.195348, 22.341906],
      [114.195513, 22.341575],
      [114.195357, 22.341239],
      [114.194998, 22.340932]
     ]
    ]
   }
  },
  {
   "type": "Feature",
   "properties": {
    "name_zh": "黃竹坑",
    "name_en": "Wong Chuk Hang",
    "source": "generated: mtr exits + rail stops, buffered 50m"
   },
   "geometry": {
    "type": "Polygon",
    "coordinates": [
     [
      [114.166923, 22.247299],
      [114.166592, 22.247358],
      [114.166382, 22.247602],
      [114.166395, 22.247914],
      [114.166625, 22.248143],
      [114.167605, 22.24858],
      [114.167857, 22.248625],
      [114.168212, 22.248562],
      [114.168422, 22.248289],
      [114.16849, 22.248027],
      [114.168422, 22.247674],
      [114.168097, 22.247479],
      [114.166923, 22.247299]
     ]
    ]
   }
  },
  {
   "type": "Feature",
   "properties": {
    "name_zh": "龍門",
    "name_en": "Lung Mun",
    "source": "generated: rail stops, buffered 50m"
   },
   "geometry": {
    "type": "Polygon",
    "coordinates": [
     [
      [113.965466, 22.38526],
      [113.965324, 22.384942],
      [113.96498, 22.384811],
      [113.964636, 22.384942],
      [113.964494, 22.38526],
      [113.964636, 22.385578],
      [113.96498, 22.385709],
      [113.965324, 22.385578],
      [113.965466, 22.38526]
     ]
    ]
   }
  }
 ]
}
